id,ident,type,name,latitude_deg,longitude_deg,elevation_ft,continent,iso_country,iso_region,municipality,scheduled_service,gps_code,iata_code,local_code,home_link,wikipedia_link,keywords
117,BIAR,medium_airport,Akureyri Airport,65.66000366210940,-18.07270050048830,6,EU,IS,IS-6,Akureyri,yes,BIAR,AEY,,,https://en.wikipedia.org/wiki/Akureyri_Airport,
119,BIEG,medium_airport,Egilsstaðir Airport,65.2833023071289,-14.401399612426800,76,EU,IS,IS-7,Egilsstaðir,yes,BIEG,EGS,,,https://en.wikipedia.org/wiki/Egilssta%C3%B0ir_Airport,
31549,BIGR,small_airport,Grímsey Airport,66.5458,-18.0173,66,EU,IS,IS-6,Grímsey,yes,BIGR,GRY,,,https://en.wikipedia.org/wiki/Gr%C3%ADmsey_Airport,
120,BIHN,medium_airport,Hornafjörður Airport,64.295601,-15.2272,24,EU,IS,IS-8,Höfn,yes,BIHN,HFN,,,https://en.wikipedia.org/wiki/Hornafj%C3%B6r%C3%B0ur_Airport,
121,BIHU,medium_airport,Húsavík Airport,65.952301,-17.426001,48,EU,IS,IS-6,Húsavík,yes,BIHU,HZK,,,https://en.wikipedia.org/wiki/H%C3%BAsav%C3%ADk_Airport,
122,BIIS,medium_airport,Ísafjörður Airport,66.05809783935550,-23.135299682617200,8,EU,IS,IS-4,Ísafjörður,yes,BIIS,IFJ,,,https://en.wikipedia.org/wiki/%C3%8Dsafj%C3%B6r%C3%B0ur_Airport,
123,BIKF,large_airport,Keflavik International Airport,63.985001,-22.6056,171,EU,IS,IS-2,Reykjavík,yes,BIKF,KEF,,https://www.isavia.is/en/keflavik-airport,https://en.wikipedia.org/wiki/Keflav%C3%ADk_International_Airport,"Keflavik Naval Air Station,REK"
125,BIRK,medium_airport,Reykjavik Airport,64.1299972534,-21.9405994415,48,EU,IS,IS-1,Reykjavik,yes,BIRK,RKV,,,https://en.wikipedia.org/wiki/Reykjav%C3%ADk_Airport,REK
127,BITN,small_airport,Þórshöfn Airport,66.218498,-15.3356,65,EU,IS,IS-6,Þórshöfn,yes,BITN,THO,,,https://en.wikipedia.org/wiki/Thorshofn_Airport,Thorshofn
32593,BIVO,small_airport,Vopnafjörður Airport,65.720596,-14.8506,16,EU,IS,IS-7,Vopnafjörður,yes,BIVO,VPN,,,https://en.wikipedia.org/wiki/Vopnafj%C3%B6r%C3%B0ur_Airport,
4614,BKPR,medium_airport,Priština Adem Jashari International Airport,42.5728,21.035801,1789,EU,XK,XK-01,Prishtina,yes,BKPR,PRN,,http://www.airportpristina.com/,https://en.wikipedia.org/wiki/Pristina_International_Airport,"LYPR, Pristina, Slatina Air Base"
2152,EBAW,medium_airport,Antwerp International Airport (Deurne),51.190667,4.463153,39,EU,BE,BE-VAN,Antwerp,yes,EBAW,ANR,,http://www.antwerp-airport.be/,https://en.wikipedia.org/wiki/Antwerp_International_Airport,
2155,EBBR,large_airport,Brussels Airport,50.901402,4.48444,175,EU,BE,BE-VBR,Zaventem,yes,EBBR,BRU,,http://www.brusselsairport.be/en/,https://en.wikipedia.org/wiki/Brussels_Airport,"Brussels National, Zaventem, EBMB"
2157,EBCI,medium_airport,Brussels South Charleroi Airport,50.460982,4.457158,614,EU,BE,BE-WHT,Charleroi,yes,EBCI,CRL,,http://www.charleroi-airport.com/doc.php?nd=o29&tid=29&lg=2&docid=1&site=1,https://en.wikipedia.org/wiki/Brussels_South_Charleroi_Airport,Gosselies Airport
2162,EBLG,medium_airport,Liège Airport,50.638574,5.443897,659,EU,BE,BE-WLG,Grâce-Hollogne,yes,EBLG,LGG,,http://www.liegeairport.be/,https://en.wikipedia.org/wiki/Li%C3%A8ge_Airport,Bierset
2163,EBOS,medium_airport,Oostende-Brugge International Airport,51.1998,2.874673,13,EU,BE,BE-VWV,Oostende,yes,EBOS,OST,,http://www.ost.aero/,https://en.wikipedia.org/wiki/Ostend-Bruges_International_Airport,Ostend-Bruges International Airport
2187,EDAH,medium_airport,Heringsdorf Airport,53.8787002563,14.152299881,93,EU,DE,DE-MV,Heringsdorf,yes,EDAH,HDF,,,https://en.wikipedia.org/wiki/Heringsdorf_Airport,
301881,EDDB,large_airport,Berlin Brandenburg Airport,52.362247,13.500672,157,EU,DE,DE-BR,Berlin,yes,EDDB,BER,,https://ber.berlin-airport.de/,https://en.wikipedia.org/wiki/Berlin_Brandenburg_Airport,
2210,EDDC,medium_airport,Dresden Airport,51.134123,13.767831,755,EU,DE,DE-SN,Dresden,yes,EDDC,DRS,,http://www.dresden-airport.de/en/index.html,https://en.wikipedia.org/wiki/Dresden_Airport,
2211,EDDE,medium_airport,Erfurt-Weimar Airport,50.979801,10.9581,1036,EU,DE,DE-TH,Erfurt,yes,EDDE,ERF,,http://www.airport-erfurt.de/,https://en.wikipedia.org/wiki/Erfurt_Airport,Flughafen Erfurt-Weimar
2212,EDDF,large_airport,Frankfurt Airport,50.030241,8.561096,364,EU,DE,DE-HE,Frankfurt am Main,yes,EDDF,FRA,,https://www.frankfurt-airport.de/,https://en.wikipedia.org/wiki/Frankfurt_Airport,"EDAF, Frankfurt am Main, Frankfurt Main, Rhein-Main Air Base, Zeppelinheim"
2213,EDDG,medium_airport,Münster Osnabrück Airport,52.134602,7.68483,160,EU,DE,DE-NW,Greven,yes,EDDG,FMO,,https://www.fmo.de/,https://en.wikipedia.org/wiki/M%C3%BCnster_Osnabr%C3%BCck_International_Airport,
2214,EDDH,large_airport,Hamburg Helmut Schmidt Airport,53.630402,9.98823,53,EU,DE,DE-HH,Hamburg,yes,EDDH,HAM,,https://www.hamburg-airport.de/en/,https://en.wikipedia.org/wiki/Hamburg_Airport,Hamburg-Fuhlsbüttel Airport
2216,EDDK,large_airport,Cologne Bonn Airport,50.865898,7.14274,302,EU,DE,DE-NW,Köln (Cologne),yes,EDDK,CGN,,http://www.koeln-bonn-airport.de/en/,https://en.wikipedia.org/wiki/Cologne_Bonn_Airport,Köln
2217,EDDL,large_airport,Düsseldorf Airport,51.289501,6.76678,147,EU,DE,DE-NW,Düsseldorf,yes,EDDL,DUS,,http://www.dus.com/dus_en/,https://en.wikipedia.org/wiki/D%C3%BCsseldorf_Airport,
2218,EDDM,large_airport,Munich Airport,48.353802,11.7861,1487,EU,DE,DE-BY,Munich,yes,EDDM,MUC,,http://www.munich-airport.com/,https://en.wikipedia.org/wiki/Munich_Airport,"Franz Josef Strauss Airport, Flughafen München Franz Josef Strauß"
2219,EDDN,large_airport,Nuremberg Airport,49.498699,11.078056,1046,EU,DE,DE-BY,Nuremberg,yes,EDDN,NUE,,https://www.airport-nuernberg.de/english,https://en.wikipedia.org/wiki/Nuremberg_Airport,Nürnberg
2220,EDDP,large_airport,Leipzig/Halle Airport,51.420657,12.232705,465,EU,DE,DE-SN,Schkeuditz,yes,EDDP,LEJ,,https://www.mdf-ag.com/,https://en.wikipedia.org/wiki/Leipzig/Halle_Airport,Schkeuditz Airport
2221,EDDR,medium_airport,Saarbrücken Airport,49.214599609400000,7.10950994492,1058,EU,DE,DE-SL,Saarbrücken,yes,EDDR,SCN,,http://www.flughafen-saarbruecken.de/,https://en.wikipedia.org/wiki/Saarbr%C3%BCcken_Airport,
2222,EDDS,large_airport,Stuttgart Airport,48.689899,9.22196,1276,EU,DE,DE-BW,Stuttgart,yes,EDDS,STR,,http://www.flughafen-stuttgart.de/,https://en.wikipedia.org/wiki/Stuttgart_Airport,
2224,EDDV,large_airport,Hannover Airport,52.461102,9.68508,183,EU,DE,DE-NI,Hannover,yes,EDDV,HAJ,,https://www.hannover-airport.de,https://en.wikipedia.org/wiki/Hanover/Langenhagen_International_Airport,
2225,EDDW,medium_airport,Bremen Airport,53.046786,8.78932,14,EU,DE,DE-HB,Bremen,yes,EDDW,BRE,,https://www.bremen-airport.com,https://en.wikipedia.org/wiki/Bremen_Airport,
2227,EDFH,medium_airport,Frankfurt-Hahn Airport,49.9487,7.26389,1649,EU,DE,DE-RP,Frankfurt am Main (Lautzenhausen),yes,EDFH,HHN,,https://www.hahn-airport.de/en/home,https://en.wikipedia.org/wiki/Frankfurt-Hahn_Airport,
2228,EDFM,medium_airport,Mannheim-City Airport,49.473057,8.514167,308,EU,DE,DE-BW,Mannheim,yes,EDFM,MHG,,http://www.flugplatz-mannheim.de/,https://en.wikipedia.org/wiki/Mannheim_City_Airport,Mannheim
2236,EDHL,medium_airport,Lübeck Blankensee Airport,53.8054008484,10.7192001343,53,EU,DE,DE-SH,Lübeck,yes,EDHL,LBC,,,https://en.wikipedia.org/wiki/L%C3%BCbeck_Airport,
2237,EDJA,medium_airport,Memmingen Allgau Airport,47.988800048800000,10.2395000458,2077,EU,DE,DE-BY,Memmingen,yes,EDJA,FMM,,,https://en.wikipedia.org/wiki/Memmingen_Airport,
2244,EDLP,medium_airport,Paderborn Lippstadt Airport,51.614101,8.61632,699,EU,DE,DE-NW,Büren,yes,EDLP,PAD,,,https://en.wikipedia.org/wiki/Paderborn_Lippstadt_Airport,
2246,EDLV,medium_airport,Weeze Airport,51.6024017334,6.14216995239,106,EU,DE,DE-NW,Weeze,yes,EDLV,NRN,,http://www.airport-weeze.de/de,https://en.wikipedia.org/wiki/Airport_Weeze,"LRC, ETUL, Niederrhein Airport, RAF Laarbruch, Düsseldorf Regional"
2247,EDLW,medium_airport,Dortmund Airport,51.518299,7.61224,425,EU,DE,DE-NW,Dortmund,yes,EDLW,DTM,,https://www.dortmund-airport.com/,https://en.wikipedia.org/wiki/Dortmund_Airport,
2256,EDNY,medium_airport,Friedrichshafen Airport,47.671299,9.51149,1367,EU,DE,DE-BW,Friedrichshafen,yes,EDNY,FDH,,https://www.bodensee-airport.eu,https://en.wikipedia.org/wiki/Friedrichshafen_Airport,Bodensee Airport Friedrichshafen
2270,EDSB,medium_airport,Karlsruhe Baden-Baden Airport,48.7794,8.0805,408,EU,DE,DE-BW,Rheinmünster,yes,EDSB,FKB,,http://www.baden-airpark.de/startseite.html,https://en.wikipedia.org/wiki/Baden_Airpark,Baden Airpark
2285,EDVK,medium_airport,Kassel Airport,51.420699,9.392152,820,EU,DE,DE-HE,Calden,yes,EDVK,KSF,,http://www.flughafenkassel.de/,https://en.wikipedia.org/wiki/Kassel_Airport,Kassel-Calden
2288,EDWE,small_airport,Emden Airport,53.391109,7.2275,3,EU,DE,DE-NI,Emden,yes,EDWE,EME,,,https://en.wikipedia.org/wiki/Emden_Airport,
28751,EDWG,small_airport,Wangerooge Airport,53.782544,7.919584,7,EU,DE,DE-NI,Wangerooge,yes,EDWG,AGE,,https://www.edwg.de,https://en.wikipedia.org/wiki/Wangerooge_Airfield,
28614,EDWJ,small_airport,Juist Airport,53.681421,7.056398,7,EU,DE,DE-NI,Juist,yes,EDWJ,JUI,,,https://de.wikipedia.org/wiki/Flugplatz_Juist,
2291,EDWR,small_airport,Borkum Airport,53.59639,6.709167,3,EU,DE,DE-NI,Borkum,yes,EDWR,BMK,,,https://en.wikipedia.org/wiki/Borkum_Airfield,Borkum
28668,EDWS,small_airport,Norden-Norddeich Airport,53.633057,7.190278,3,EU,DE,DE-NI,Norddeich,yes,EDWS,NOD,,,https://en.wikipedia.org/wiki/Norden-Norddeich_Airfield,
2292,EDWY,small_airport,Norderney Airport,53.706944,7.23,7,EU,DE,DE-NI,Norderney,yes,EDWY,NRD,,https://flughafen-norderney.de/,https://en.wikipedia.org/wiki/Norderney_Airport,
28520,EDWZ,small_airport,Baltrum Airport,53.72485,7.373257,7,EU,DE,DE-NI,Baltrum,yes,EDWZ,BMR,,https://www.baltrum-flug.de/,https://de.wikipedia.org/wiki/Flugplatz_Baltrum,
28590,EDXB,small_airport,Heide-Büsum Airport,54.153331756600000,8.90166664124,7,EU,DE,DE-SH,Büsum,yes,EDXB,HEI,,http://www.edxb.de,https://en.wikipedia.org/wiki/Heide-Buesum_Airport,
28591,EDXH,small_airport,Helgoland-Düne Airport,54.185279846200000,7.91583299637,8,EU,DE,DE-SH,Helgoland,yes,EDXH,HGL,,http://www.flughafen-helgoland.de,https://en.wikipedia.org/wiki/Heligoland_Airport,
2296,EDXW,medium_airport,Westerland Sylt Airport,54.9132,8.34047,51,EU,DE,DE-SH,Westerland,yes,EDXW,GWT,,https://www.flughafen-sylt.de,https://en.wikipedia.org/wiki/Sylt_Airport,
2298,EEKA,medium_airport,Kärdla Airport,58.99079895019530,22.830699920654300,18,EU,EE,EE-39,Kärdla,yes,EEKA,KDL,,,https://en.wikipedia.org/wiki/K%C3%A4rdla_Airport,
2299,EEKE,medium_airport,Kuressaare Airport,58.22990036010740,22.50950050354000,14,EU,EE,EE-74,Kuressaare,yes,EEKE,URE,,http://www.eeke.ee/,https://en.wikipedia.org/wiki/Kuressaare_Airport,
2300,EEPU,medium_airport,Pärnu Airport,58.41899871826170,24.47279930114750,47,EU,EE,EE-67,Pärnu,yes,EEPU,EPU,,,https://en.wikipedia.org/wiki/P%C3%A4rnu_Airport,
2301,EETN,large_airport,Lennart Meri Tallinn Airport,59.41443,24.832706,131,EU,EE,EE-37,Tallinn,yes,EETN,TLL,,http://www.tallinn-airport.ee/eng,https://en.wikipedia.org/wiki/Tallinn_Airport,
2302,EETU,medium_airport,Tartu Airport,58.307499,26.690399,220,EU,EE,EE-7B,Tartu,yes,EETU,TAY,,,https://en.wikipedia.org/wiki/Tartu_Airport,
2303,EFET,medium_airport,Enontekio Airport,68.362602233887,23.424299240112,1005,EU,FI,FI-10,Enontekio,yes,EFET,ENF,,http://www.finavia.fi/en/enontekio/,https://en.wikipedia.org/wiki/Enonteki%C3%B6_Airport,
2307,EFHK,large_airport,Helsinki Vantaa Airport,60.318363,24.963341,179,EU,FI,FI-18,Helsinki,yes,EFHK,HEL,,http://www.finavia.fi/en/helsinki-airport,https://en.wikipedia.org/wiki/Helsinki_Airport,
2314,EFIV,medium_airport,Ivalo Airport,68.607299804688,27.405300140381,481,EU,FI,FI-10,Ivalo,yes,EFIV,IVL,,http://www.finavia.fi/en/ivalo/,https://en.wikipedia.org/wiki/Ivalo_Airport,
2315,EFJO,medium_airport,Joensuu Airport,62.658815,29.619398,398,EU,FI,FI-13,Joensuu,yes,EFJO,JOE,,http://www.finavia.fi/en/joensuu/,https://en.wikipedia.org/wiki/Joensuu_Airport,
2316,EFJY,medium_airport,Jyväskylä Airport,62.399502,25.678301,459,EU,FI,FI-08,Jyväskylän Maalaiskunta,yes,EFJY,JYV,,https://www.finavia.fi/en/jyvaskyla/,https://en.wikipedia.org/wiki/Jyv%C3%A4skyl%C3%A4_Airport,
2318,EFKE,medium_airport,Kemi-Tornio Airport,65.778701782227,24.582099914551,61,EU,FI,FI-10,Kemi / Tornio,yes,EFKE,KEM,,http://www.finavia.fi/en/kemi-tornio/,https://en.wikipedia.org/wiki/Kemi-Tornio_Airport,
2319,EFKI,medium_airport,Kajaani Airport,64.2855,27.6924,483,EU,FI,FI-05,Kajaani,yes,EFKI,KAJ,,https://www.finavia.fi/en/kajaani/,https://en.wikipedia.org/wiki/Kajaani_Airport,
2321,EFKK,medium_airport,Kokkola-Pietarsaari Airport,63.721199,23.143101,84,EU,FI,FI-07,Kokkola / Kruunupyy,yes,EFKK,KOK,,https://www.finavia.fi/en/kokkola-pietarsaari/,https://en.wikipedia.org/wiki/Kokkola-Pietarsaari_Airport,Kronoby Airport
2324,EFKS,medium_airport,Kuusamo Airport,65.987602,29.239401,866,EU,FI,FI-14,Kuusamo,yes,EFKS,KAO,,http://www.finavia.fi/en/kuusamo/,https://en.wikipedia.org/wiki/Kuusamo_Airport,
2325,EFKT,medium_airport,Kittilä Airport,67.700996398926,24.846799850464,644,EU,FI,FI-10,Kittilä,yes,EFKT,KTT,,http://www.finavia.fi/en/kittila/,https://en.wikipedia.org/wiki/Kittil%C3%A4_Airport,
2326,EFKU,medium_airport,Kuopio Airport,63.007099,27.7978,323,EU,FI,FI-15,Kuopio / Siilinjärvi,yes,EFKU,KUO,,https://www.finavia.fi/en/kuopio/,https://en.wikipedia.org/wiki/Kuopio_Airport,
2329,EFLP,medium_airport,Lappeenranta Airport,61.044601,28.144743,349,EU,FI,FI-02,Lappeenranta,yes,EFLP,LPP,,https://lppairport.fi/en,https://en.wikipedia.org/wiki/Lappeenranta_Airport,
2330,EFMA,medium_airport,Mariehamn Airport,60.1222,19.898199,17,EU,FI,FI-01,Mariehamn,yes,EFMA,MHQ,,http://www.finavia.fi/en/mariehamn/,https://en.wikipedia.org/wiki/Mariehamn_Airport,
2334,EFOU,medium_airport,Oulu Airport,64.930099,25.354601,47,EU,FI,FI-14,Oulu / Oulunsalo,yes,EFOU,OUL,,https://www.finavia.fi/en/oulu/,https://en.wikipedia.org/wiki/Oulu_Airport,
2336,EFPO,medium_airport,Pori Airport,61.4617,21.799999,44,EU,FI,FI-17,Pori,yes,EFPO,POR,,http://www.finavia.fi/en/pori/,https://en.wikipedia.org/wiki/Pori_Airport,
2341,EFRO,medium_airport,Rovaniemi Airport,66.564796447754,25.830400466919,642,EU,FI,FI-10,Rovaniemi,yes,EFRO,RVN,,http://www.finavia.fi/en/rovaniemi/,https://en.wikipedia.org/wiki/Rovaniemi_Airport,
2343,EFSA,medium_airport,Savonlinna Airport,61.9431,28.945101,311,EU,FI,FI-04,Savonlinna,yes,EFSA,SVL,,http://www.finavia.fi/en/savonlinna/,https://en.wikipedia.org/wiki/Savonlinna_Airport,
2347,EFTP,medium_airport,Tampere-Pirkkala Airport,61.414101,23.604401,390,EU,FI,FI-11,Tampere / Pirkkala,yes,EFTP,TMP,,https://www.finavia.fi/en/tampere-pirkkala/,https://en.wikipedia.org/wiki/Tampere-Pirkkala_Airport,
2349,EFTU,medium_airport,Turku Airport,60.514099,22.2628,161,EU,FI,FI-19,Turku,yes,EFTU,TKU,,https://www.finavia.fi/en/turku/,https://en.wikipedia.org/wiki/Turku_Airport,
2351,EFVA,medium_airport,Vaasa Airport,63.050701,21.762199,19,EU,FI,FI-12,Vaasa,yes,EFVA,VAA,,http://www.finavia.fi/en/vaasa/,https://en.wikipedia.org/wiki/Vaasa_Airport,
2385,EGAA,large_airport,Belfast International Airport,54.6575012207,-6.2158298492400000,268,EU,GB,GB-NIR,Belfast,yes,EGAA,BFS,,http://www.belfastairport.com/,https://en.wikipedia.org/wiki/Belfast_International_Airport,"Aldergrove, RAF Aldergrove"
2387,EGAC,medium_airport,George Best Belfast City Airport,54.618099,-5.8725,15,EU,GB,GB-NIR,Belfast,yes,EGAC,BHD,,http://www.belfastcityairport.com/,https://en.wikipedia.org/wiki/George_Best_Belfast_City_Airport,
2388,EGAE,medium_airport,City of Derry Airport,55.04280090332030,-7.161109924316410,22,EU,GB,GB-NIR,Derry,yes,EGAE,LDY,,http://www.cityofderryairport.com/,https://en.wikipedia.org/wiki/City_of_Derry_Airport,Londonderry Eglinton Airport
2389,EGBB,large_airport,Birmingham International Airport,52.453899,-1.74803,327,EU,GB,GB-ENG,Birmingham,yes,EGBB,BHX,,http://www.bhx.co.uk/,https://en.wikipedia.org/wiki/Birmingham_International_Airport_(United_Kingdom),
2398,EGCC,large_airport,Manchester Airport,53.349375,-2.279521,257,EU,GB,GB-ENG,Manchester,yes,EGCC,MAN,,http://www.manchesterairport.co.uk/,https://en.wikipedia.org/wiki/Manchester_Airport,"Ringway Airport, RAF Ringway"
2411,EGEC,medium_airport,Campbeltown Airport,55.437198638916000,-5.686389923095700,42,EU,GB,GB-SCT,Campbeltown,yes,EGEC,CAL,,http://www.hial.co.uk/campbeltown-airport.html,https://en.wikipedia.org/wiki/Campbeltown_Airport,"Kintyre, RAF Machrihanish, Kinlochkilkerran"
29126,EGED,medium_airport,Eday Airport,59.19060134887700,-2.7722198963165300,10,EU,GB,GB-SCT,Eday,yes,EGED,EOI,,,https://en.wikipedia.org/wiki/Eday_Airport,London Airport
29127,EGEF,small_airport,Fair Isle Airport,59.534721,-1.628509,223,EU,GB,GB-SCT,Fair Isle,yes,EGEF,FIE,,http://www.fairisle.org.uk/egef/index.htm,https://en.wikipedia.org/wiki/Fair_Isle_Airport,
29129,EGEN,small_airport,North Ronaldsay Airport,59.3675003052,-2.43443989754,40,EU,GB,GB-SCT,North Ronaldsay,yes,EGEN,NRL,,,https://en.wikipedia.org/wiki/North_Ronaldsay_Airport,
29130,EGEP,small_airport,Papa Westray Airport,59.351699829100000,-2.9002799987800000,91,EU,GB,GB-SCT,Papa Westray,yes,EGEP,PPW,,,https://en.wikipedia.org/wiki/Papa_Westray_Airport,Papay
29131,EGER,small_airport,Stronsay Airport,59.1553,-2.64139,39,EU,GB,GB-SCT,Stronsay,yes,EGER,SOY,,,https://en.wikipedia.org/wiki/Stronsay_Airport,
29132,EGES,small_airport,Sanday Airport,59.250301,-2.57667,68,EU,GB,GB-SCT,Sanday,yes,EGES,NDY,,,https://en.wikipedia.org/wiki/Sanday_Airport,
29133,EGET,small_airport,Lerwick / Tingwall Airport,60.192199707,-1.24361002445,43,EU,GB,GB-SCT,Lerwick,yes,EGET,LWK,,,https://en.wikipedia.org/wiki/Tingwall_Airport,
29134,EGEW,small_airport,Westray Airport,59.3502998352,-2.95000004768,29,EU,GB,GB-SCT,Westray,yes,EGEW,WRY,,,https://en.wikipedia.org/wiki/Westray_Airport,
2415,EGFF,medium_airport,Cardiff International Airport,51.396702,-3.34333,220,EU,GB,GB-WLS,Cardiff,yes,EGFF,CWL,,http://www.cwlfly.com/,https://en.wikipedia.org/wiki/Cardiff_International_Airport,Rhoose
2417,EGGD,medium_airport,Bristol Airport,51.382702,-2.71909,622,EU,GB,GB-ENG,Bristol,yes,EGGD,BRS,,http://www.bristolairport.co.uk/,https://en.wikipedia.org/wiki/Bristol_International_Airport,Lulsgate Bottom
2418,EGGP,medium_airport,Liverpool John Lennon Airport,53.333599,-2.84972,80,EU,GB,GB-ENG,Liverpool,yes,EGGP,LPL,,http://www.liverpoolairport.com/,https://en.wikipedia.org/wiki/Liverpool_John_Lennon_Airport,
2419,EGGW,large_airport,London Luton Airport,51.874699,-0.368333,526,EU,GB,GB-ENG,"Luton, Bedfordshire",yes,EGGW,LTN,,http://www.london-luton.co.uk/en/,https://en.wikipedia.org/wiki/London_Luton_Airport,LON
29139,EGHC,small_airport,Land's End Airport,50.102798,-5.67056,398,EU,GB,GB-ENG,Land's End,yes,EGHC,LEQ,,http://www.landsendairport.co.uk/,https://en.wikipedia.org/wiki/Land%27s_End_Airport,St. Just Airport
29140,EGHE,small_airport,St. Mary's Airport,49.9133,-6.29167,116,EU,GB,GB-ENG,St. Mary's,yes,EGHE,ISC,,http://www.scilly.gov.uk/transport/airandsea/airport/,https://en.wikipedia.org/wiki/St._Mary%27s_Airport_%28Isles_of_Scilly%29,
2421,EGHH,medium_airport,Bournemouth Airport,50.779999,-1.8425,38,EU,GB,GB-ENG,Bournemouth,yes,EGHH,BOH,,http://www.bournemouthairport.com/,https://en.wikipedia.org/wiki/Bournemouth_Airport,RAF Hurn
2422,EGHI,medium_airport,Southampton Airport,50.950298,-1.3568,44,EU,GB,GB-ENG,Southampton,yes,EGHI,SOU,,http://www.southamptonairport.com/,https://en.wikipedia.org/wiki/Southampton_Airport,"RAF Eastleigh, RAF Southampton"
2404,EGHQ,medium_airport,Cornwall Airport Newquay,50.440601,-4.99541,390,EU,GB,GB-ENG,Newquay,yes,EGHQ,NQY,,https://www.cornwallairportnewquay.com/,https://en.wikipedia.org/wiki/Newquay_Airport,"St Mawgan, EGDG"
2424,EGJA,medium_airport,Alderney Airport,49.706104,-2.21472,290,EU,GG,GG-U-A,Saint Anne,yes,EGJA,ACI,,,https://en.wikipedia.org/wiki/Alderney_Airport,"The Blaye, Channel Islands"
2425,EGJB,medium_airport,Guernsey Airport,49.435001,-2.60197,336,EU,GG,GG-U-A,Saint Peter Port,yes,EGJB,GCI,,,https://en.wikipedia.org/wiki/Guernsey_Airport,Channel Islands
2426,EGJJ,medium_airport,Jersey Airport,49.20790100097660,-2.195509910583500,277,EU,JE,JE-U-A,Saint Helier,yes,EGJJ,JER,,http://www.jerseyairport.com/,https://en.wikipedia.org/wiki/Jersey_Airport,Channel Islands
2429,EGKK,large_airport,London Gatwick Airport,51.148771,-0.192089,202,EU,GB,GB-ENG,"Gatwick, Surrey",yes,EGKK,LGW,,http://www.gatwickairport.com/,https://en.wikipedia.org/wiki/Gatwick_Airport,"LON, Crawley, Charlwood"
2430,EGLC,medium_airport,London City Airport,51.505299,0.055278,19,EU,GB,GB-ENG,London,yes,EGLC,LCY,,http://www.londoncityairport.com/,https://en.wikipedia.org/wiki/London_City_Airport,LON
2434,EGLL,large_airport,London Heathrow Airport,51.4706,-0.461941,83,EU,GB,GB-ENG,London,yes,EGLL,LHR,,http://www.heathrowairport.com/,https://en.wikipedia.org/wiki/Heathrow_Airport,"LON, Londres"
2435,EGMC,medium_airport,London Southend Airport,51.570562,0.693627,49,EU,GB,GB-ENG,"Southend-on-Sea, Essex",yes,EGMC,SEN,,http://www.southendairport.com/,https://en.wikipedia.org/wiki/London_Southend_Airport,RAF Rochford
2441,EGNH,medium_airport,Blackpool International Airport,53.77170181274410,-3.0286099910736100,34,EU,GB,GB-ENG,Blackpool,yes,EGNH,BLK,,http://www.blackpoolinternational.com/,https://en.wikipedia.org/wiki/Blackpool_International_Airport,
2442,EGNJ,medium_airport,Humberside Airport,53.57440185546880,-0.350832998752594,121,EU,GB,GB-ENG,Grimsby,yes,EGNJ,HUY,,http://www.humbersideairport.com/,https://en.wikipedia.org/wiki/Humberside_Airport,RAF Kirmington
2444,EGNM,medium_airport,Leeds Bradford Airport,53.865898,-1.66057,681,EU,GB,GB-ENG,Leeds,yes,EGNM,LBA,,http://www.lbia.co.uk/,https://en.wikipedia.org/wiki/Leeds_Bradford_International_Airport,
2447,EGNS,medium_airport,Isle of Man Airport,54.083302,-4.62389,52,EU,IM,IM-U-A,Castletown,yes,EGNS,IOM,,http://www.iom-airport.com/,https://en.wikipedia.org/wiki/Isle_of_Man_Airport,"Ronaldsway, Douglas"
2448,EGNT,medium_airport,Newcastle Airport,55.037958,-1.689577,266,EU,GB,GB-ENG,Newcastle,yes,EGNT,NCL,,http://www.newcastleairport.com/,https://en.wikipedia.org/wiki/Newcastle_Airport,
2449,EGNV,medium_airport,Teesside International Airport,54.509201,-1.42941,120,EU,GB,GB-ENG,"Darlington, Durham",yes,EGNV,MME,,https://www.teessideinternational.com/,https://en.wikipedia.org/wiki/Teesside_International_Airport,"Durham Tees Valley Airport, RAF Middleton St George, Tees-Side"
2450,EGNX,medium_airport,East Midlands Airport,52.8311,-1.32806,306,EU,GB,GB-ENG,Nottingham,yes,EGNX,EMA,,http://www.eastmidlandsairport.com/,https://en.wikipedia.org/wiki/East_Midlands_Airport,RAF Castle Donington
2454,EGOV,medium_airport,Anglesey Airport,53.2481002808,-4.53533983231,37,EU,GB,GB-WLS,Angelsey,yes,EGOV,VLY,,http://www.angleseyairport.com/,https://en.wikipedia.org/wiki/Anglesey_Airport,"Maes Awyr Môn, RAF Valley"
2456,EGPA,medium_airport,Kirkwall Airport,58.957801818847700,-2.9049999713897700,50,EU,GB,GB-SCT,Orkney Islands,yes,EGPA,KOI,,,https://en.wikipedia.org/wiki/Kirkwall_Airport,
2457,EGPB,medium_airport,Sumburgh Airport,59.87889862060550,-1.2955600023269700,20,EU,GB,GB-SCT,Lerwick,yes,EGPB,LSI,,http://www.hial.co.uk/sumburgh-airport.html,https://en.wikipedia.org/wiki/Sumburgh_Airport,Shetlands
2458,EGPC,medium_airport,Wick Airport,58.458900451660200,-3.09306001663208,126,EU,GB,GB-SCT,Wick,yes,EGPC,WIC,,http://www.hial.co.uk/wick-airport.html,https://en.wikipedia.org/wiki/Wick_Airport,
2459,EGPD,medium_airport,Aberdeen Dyce Airport,57.2019,-2.19778,215,EU,GB,GB-SCT,Aberdeen,yes,EGPD,ABZ,,http://www.aberdeenairport.com/,https://en.wikipedia.org/wiki/Aberdeen_Airport,
2460,EGPE,medium_airport,Inverness Airport,57.54249954223630,-4.047500133514400,31,EU,GB,GB-SCT,Inverness,yes,EGPE,INV,,http://www.hial.co.uk/inverness-airport.html,https://en.wikipedia.org/wiki/Inverness_Airport,
2461,EGPF,large_airport,Glasgow International Airport,55.871899,-4.43306,26,EU,GB,GB-SCT,"Paisley, Renfrewshire",yes,EGPF,GLA,,http://www.glasgowairport.com/,https://en.wikipedia.org/wiki/Glasgow_International_Airport,"Port-adhair Eadar-nàiseanta Ghlaschu, RAF Abbotsinch, RAF Ayr"
2462,EGPH,large_airport,Edinburgh Airport,55.950145,-3.372288,135,EU,GB,GB-SCT,Edinburgh,yes,EGPH,EDI,,http://www.edinburghairport.com/,https://en.wikipedia.org/wiki/Edinburgh_Airport,
2463,EGPI,medium_airport,Islay Airport,55.68190002441410,-6.256669998168950,56,EU,GB,GB-SCT,Port Ellen,yes,EGPI,ILY,,,https://en.wikipedia.org/wiki/Islay_Airport,Glenegedale
2464,EGPK,medium_airport,Glasgow Prestwick Airport,55.502003,-4.587019,65,EU,GB,GB-SCT,"Prestwick, South Ayrshire",yes,EGPK,PIK,,http://www.glasgowprestwick.com/,https://en.wikipedia.org/wiki/Glasgow_Prestwick_International_Airport,
2465,EGPL,medium_airport,Benbecula Airport,57.48109817504880,-7.3627800941467300,19,EU,GB,GB-SCT,Balivanich,yes,EGPL,BEB,,http://www.hial.co.uk/benbecula-airport.html,https://en.wikipedia.org/wiki/Benbecula_Airport,
2467,EGPN,medium_airport,Dundee Airport,56.45249938964840,-3.025830030441280,17,EU,GB,GB-SCT,Dundee,yes,EGPN,DND,,http://www.hial.co.uk/dundee-airport.html,https://en.wikipedia.org/wiki/Dundee_Airport,
2468,EGPO,medium_airport,Stornoway Airport,58.215599,-6.33111,26,EU,GB,GB-SCT,"Stornoway, Western Isles",yes,EGPO,SYY,,http://www.hial.co.uk/stornoway-airport.html,https://en.wikipedia.org/wiki/Stornoway_Airport,Lewis
29173,EGPR,medium_airport,Barra Airport,57.0228,-7.44306,5,EU,GB,GB-SCT,Eoligarry,yes,EGPR,BRR,,http://www.hial.co.uk/barra-airport.html,https://en.wikipedia.org/wiki/Barra_Airport_(Scotland),"Barra Eoligarry Airport, Barra Island"
2469,EGPU,medium_airport,Tiree Airport,56.49919891357420,-6.869170188903810,38,EU,GB,GB-SCT,Balemartine,yes,EGPU,TRE,,http://www.hial.co.uk/tiree-airport.html,https://en.wikipedia.org/wiki/Tiree_Airport,Inner Hebrides
2475,EGSH,medium_airport,Norwich Airport,52.6758,1.28278,117,EU,GB,GB-ENG,"Norwich, Norfolk",yes,EGSH,NWI,,https://www.norwichairport.co.uk/,https://en.wikipedia.org/wiki/Norwich_Airport,RAF Horsham St Faith
2476,EGSS,large_airport,London Stansted Airport,51.884998,0.235,348,EU,GB,GB-ENG,London,yes,EGSS,STN,,http://www.stanstedairport.com/,https://en.wikipedia.org/wiki/London_Stansted_Airport,LON
2481,EGTE,medium_airport,Exeter International Airport,50.734402,-3.41389,102,EU,GB,GB-ENG,Exeter,yes,EGTE,EXT,,http://www.exeter-airport.co.uk/,https://en.wikipedia.org/wiki/Exeter_International_Airport,
2513,EHAM,large_airport,Amsterdam Airport Schiphol,52.308601,4.76389,-11,EU,NL,NL-NH,Amsterdam,yes,EHAM,AMS,,https://www.schiphol.nl/,https://en.wikipedia.org/wiki/Amsterdam_Airport_Schiphol,
2515,EHBK,medium_airport,Maastricht Aachen Airport,50.911701,5.77014,375,EU,NL,NL-LI,Maastricht,yes,EHBK,MST,,,https://en.wikipedia.org/wiki/Maastricht_Aachen_Airport,
2518,EHEH,large_airport,Eindhoven Airport,51.4500999451,5.37452983856,74,EU,NL,NL-NB,Eindhoven,yes,EHEH,EIN,,http://www.eindhovenairport.nl/,https://en.wikipedia.org/wiki/Eindhoven_Airport,Welschap Airport
2519,EHGG,medium_airport,Groningen Airport Eelde,53.119701,6.57944,17,EU,NL,NL-DR,Groningen,yes,EHGG,GRQ,,,https://en.wikipedia.org/wiki/Groningen_Airport_Eelde,
2524,EHRD,medium_airport,Rotterdam The Hague Airport,51.956902,4.43722,-15,EU,NL,NL-ZH,Rotterdam,yes,EHRD,RTM,,https://www.rotterdamthehagueairport.nl/,https://en.wikipedia.org/wiki/Rotterdam_Airport,Vliegveld Zestienhoven
27309,EICA,small_airport,Connemara Regional Airport,53.23030090332030,-9.467780113220220,70,EU,IE,IE-G,Inverin,yes,EICA,NNR,,http://www.aerarannislands.ie/,https://en.wikipedia.org/wiki/Aerfort_na_Minna,"Aerfort na Minna, Indreabhán"
2530,EICK,medium_airport,Cork Airport,51.841301,-8.49111,502,EU,IE,IE-C,Cork,yes,EICK,ORK,,http://www.corkairport.com/,https://en.wikipedia.org/wiki/Cork_Airport,Aerfort Chorcaí
2531,EICM,medium_airport,Galway Airport,53.300201416015600,-8.941590309143070,81,EU,IE,IE-G,Galway,yes,EICM,GWY,,http://www.galwayairport.com/,https://en.wikipedia.org/wiki/Galway_Airport,
2532,EIDL,medium_airport,Donegal Airport,55.0442008972168,-8.340999603271480,30,EU,IE,IE-DL,Donegal,yes,EIDL,CFN,,http://www.donegalairport.ie/,https://en.wikipedia.org/wiki/Donegal_Airport,Gweedore
2533,EIDW,large_airport,Dublin Airport,53.428713,-6.262121,242,EU,IE,IE-D,Dublin,yes,EIDW,DUB,,http://www.dublinairport.com/,https://en.wikipedia.org/wiki/Dublin_Airport,Aerfort Bhaile Átha Cliath
29221,EIIM,small_airport,Inishmore Aerodrome,53.1067008972168,-9.653610229492190,24,EU,IE,IE-G,Inis Mór,yes,EIIM,IOR,,,https://en.wikipedia.org/wiki/Inishmore_Aerodrome,Aran Islands
29222,EIIR,small_airport,Inisheer Aerodrome,53.064701,-9.5109,40,EU,IE,IE-G,Inis Oírr,yes,EIIR,INQ,,,https://en.wikipedia.org/wiki/Inisheer_Aerodrome,Aran Islands
2534,EIKN,medium_airport,Ireland West Knock Airport,53.910301,-8.81849,665,EU,IE,IE-MO,Charlestown,yes,EIKN,NOC,,http://www.irelandwestairport.com/,https://en.wikipedia.org/wiki/Ireland_West_Airport_Knock,Connaught
2535,EIKY,medium_airport,Kerry Airport,52.180901,-9.52378,112,EU,IE,IE-KY,Killarney,yes,EIKY,KIR,,http://www.kerryairport.ie/,https://en.wikipedia.org/wiki/Kerry_Airport,
29226,EIMN,small_airport,Inishmaan Aerodrome,53.092999,-9.56806,15,EU,IE,IE-G,Inis Meáin,yes,EIMN,IIA,,,https://en.wikipedia.org/wiki/Inishmaan_Aerodrome,Aran Islands
2537,EINN,large_airport,Shannon Airport,52.702,-8.92482,46,EU,IE,IE-CE,Shannon,yes,EINN,SNN,,http://www.shannonairport.com/,https://en.wikipedia.org/wiki/Shannon_Airport,
2540,EKAH,medium_airport,Aarhus Airport,56.303331,10.618286,82,EU,DK,DK-82,Aarhus,yes,EKAH,AAR,,http://www.aar.dk/default.asp?id=87,https://en.wikipedia.org/wiki/Aarhus_Airport,
2541,EKBI,large_airport,Billund Airport,55.740496,9.160452,247,EU,DK,DK-83,Billund,yes,EKBI,BLL,,http://www.billund-airport.dk/?sc_lang=en,https://en.wikipedia.org/wiki/Billund_Airport,
2542,EKCH,large_airport,Copenhagen Kastrup Airport,55.617900848389,12.656000137329,17,EU,DK,DK-84,Copenhagen,yes,EKCH,CPH,,http://www.cph.dk/en/,https://en.wikipedia.org/wiki/Copenhagen_Airport,"København, Malmö"
2543,EKEB,medium_airport,Esbjerg Airport,55.525902,8.5534,97,EU,DK,DK-83,Esbjerg,yes,EKEB,EBJ,,http://www.esbjerg-lufthavn.dk/en/,https://en.wikipedia.org/wiki/Esbjerg_Airport,"offshore, North Sea"
2546,EKKA,medium_airport,Karup Airport,56.29750061035160,9.124629974365230,170,EU,DK,DK-82,Karup,yes,EKKA,KRP,,,https://en.wikipedia.org/wiki/Karup_Airport,
2547,EKLS,small_airport,Læsø Airport,57.277199,11.0001,25,EU,DK,DK-81,Læsø,yes,EKLS,BYR,,,https://en.wikipedia.org/wiki/L%C3%A6s%C3%B8_Airport,"Laeso, Laesoe"
2549,EKOD,medium_airport,Odense Airport,55.47669982910160,10.330900192260700,56,EU,DK,DK-83,Odense,yes,EKOD,ODE,,,https://en.wikipedia.org/wiki/Odense_Airport,
2551,EKRK,medium_airport,Copenhagen Roskilde Airport,55.585602,12.1314,146,EU,DK,DK-85,Copenhagen,yes,EKRK,RKE,,,https://en.wikipedia.org/wiki/Roskilde_Airport,København
2552,EKRN,medium_airport,Bornholm Airport,55.06330108642580,14.759599685668900,52,EU,DK,DK-84,Rønne,yes,EKRN,RNN,,http://www.bornholms-lufthavn.dk/en/,https://en.wikipedia.org/wiki/Bornholm_Airport,Roenne
2553,EKSB,medium_airport,Sønderborg Airport,54.96440124511720,9.791729927062990,24,EU,DK,DK-83,Sønderborg,yes,EKSB,SGD,,,https://en.wikipedia.org/wiki/S%C3%B8nderborg_Airport,"Sonderborg, Soenderborg"
2554,EKSN,medium_airport,Sindal Airport,57.503502,10.2294,92,EU,DK,DK-81,Sindal,yes,EKSN,CNL,,http://www.eksn.dk/,https://en.wikipedia.org/wiki/Sindal_Airport,
2559,EKVG,medium_airport,Vágar Airport,62.063256,-7.275782,280,EU,FO,FO-U-A,Vágar,yes,EKVG,FAE,,http://www.floghavn.fo/,https://en.wikipedia.org/wiki/V%C3%A1gar_Airport,"Faroes, RAF Vágar"
2562,EKYT,medium_airport,Aalborg Airport,57.094763,9.84993,10,EU,DK,DK-81,Aalborg,yes,EKYT,AAL,,http://www.aal.dk,https://en.wikipedia.org/wiki/Aalborg_Airport,
2563,ELLX,large_airport,Luxembourg-Findel International Airport,49.6233333,6.2044444,1234,EU,LU,LU-L,Luxembourg,yes,ELLX,LUX,,http://www.lux-airport.lu/en/,https://en.wikipedia.org/wiki/Luxembourg-Findel_International_Airport,
2564,ENAL,medium_airport,"Ålesund Airport, Vigra",62.5625,6.1197,69,EU,NO,NO-15,Ålesund,yes,ENAL,AES,,http://www.avinor.no/lufthavn/alesund,https://en.wikipedia.org/wiki/%C3%85lesund_Airport%2C_Vigra,Vigra
2565,ENAN,medium_airport,"Andøya Airport, Andenes",69.292503,16.144199,43,EU,NO,NO-18,Andenes,yes,ENAN,ANX,,https://avinor.no/en/airport/andoya-airport/,https://en.wikipedia.org/wiki/And%C3%B8ya_Airport%2C_Andenes,
2566,ENAT,medium_airport,Alta Airport,69.976097106934,23.371700286865,9,EU,NO,NO-54,Alta,yes,ENAT,ALF,,https://avinor.no/en/airport/alta-airport/,https://en.wikipedia.org/wiki/Alta_Airport,
29254,ENBL,small_airport,"Førde Airport, Bringeland",61.391102,5.75694,1046,EU,NO,NO-46,Førde,yes,ENBL,FDE,,https://avinor.no/en/airport/forde-airport/,https://en.wikipedia.org/wiki/F%C3%B8rde_Airport%2C_Bringeland,bringeland
2568,ENBN,medium_airport,"Brønnøysund Airport, Brønnøy",65.461098,12.2175,25,EU,NO,NO-18,Brønnøy,yes,ENBN,BNN,,https://avinor.no/en/airport/bronnoysund-airport/,https://en.wikipedia.org/wiki/Br%C3%B8nn%C3%B8ysund_Airport%2C_Br%C3%B8nn%C3%B8y,Bronnoy
2569,ENBO,medium_airport,Bodø Airport,67.269203,14.3653,42,EU,NO,NO-18,Bodø,yes,ENBO,BOO,,http://www.avinor.no/en/airport/bodo/frontpage,https://en.wikipedia.org/wiki/Bod%C3%B8_Airport,"Bodø Air Force Base, Bodø Main Air Station"
2570,ENBR,large_airport,"Bergen Airport, Flesland",60.2934,5.21814,170,EU,NO,NO-46,Bergen,yes,ENBR,BGO,,http://www.avinor.no/en/airport/bergen,https://en.wikipedia.org/wiki/Bergen_Airport%2C_Flesland,
2571,ENBS,medium_airport,Båtsfjord Airport,70.60050201416,29.691400527954,490,EU,NO,NO-54,Båtsfjord,yes,ENBS,BJF,,https://avinor.no/en/airport/batsfjord-airport/,https://en.wikipedia.org/wiki/B%C3%A5tsfjord_Airport,
29255,ENBV,medium_airport,Berlevåg Airport,70.871399,29.034201,42,EU,NO,NO-54,Berlevåg,yes,ENBV,BVG,,https://avinor.no/en/airport/berlevag-airport/,https://en.wikipedia.org/wiki/Berlev%C3%A5g_Airport,
2572,ENCN,medium_airport,"Kristiansand Airport, Kjevik",58.204201,8.08537,57,EU,NO,NO-42,Kjevik,yes,ENCN,KRS,,http://www.avinor.no/en/airport/kristiansand,https://en.wikipedia.org/wiki/Kristiansand_Airport%2C_Kjevik,
2574,ENDU,medium_airport,Bardufoss Airport,69.055801391602,18.540399551392,252,EU,NO,NO-54,Målselv,yes,ENDU,BDU,,https://avinor.no/en/airport/bardufoss-airport/,https://en.wikipedia.org/wiki/Bardufoss_Airport,
2575,ENEV,medium_airport,"Harstad/Narvik Airport, Evenes",68.491302490234,16.678100585938,84,EU,NO,NO-18,Evenes,yes,ENEV,EVE,,https://avinor.no/en/airport/harstadnarvik-airport/,https://en.wikipedia.org/wiki/Harstad/Narvik_Airport%2C_Evenes,"Harstad/Narvik lufthavn, Evenes"
2577,ENFL,medium_airport,Florø Airport,61.583599090576,5.0247201919556,37,EU,NO,NO-46,Florø,yes,ENFL,FRO,,https://avinor.no/en/airport/floro-airport/,https://en.wikipedia.org/wiki/Flor%C3%B8_Airport,Floro
2578,ENGM,large_airport,"Oslo Airport, Gardermoen",60.193901,11.1004,681,EU,NO,NO-30,Oslo,yes,ENGM,OSL,,https://avinor.no/en/airport/oslo-airport,"https://en.wikipedia.org/wiki/Oslo_Airport,_Gardermoen",
2579,ENHD,medium_airport,"Haugesund Airport, Karmøy",59.345299,5.20836,86,EU,NO,NO-11,Karmøy,yes,ENHD,HAU,,https://flyhau.no/,https://en.wikipedia.org/wiki/Haugesund_Airport%2C_Karm%C3%B8y,Karmoy
28115,ENHF,medium_airport,Hammerfest Airport,70.679702758789,23.668600082397,266,EU,NO,NO-54,Hammerfest,yes,ENHF,HFT,,https://avinor.no/en/airport/hammerfest-airport/,https://en.wikipedia.org/wiki/Hammerfest_Airport,
2580,ENHK,small_airport,Hasvik Airport,70.486701965332,22.139699935913,21,EU,NO,NO-54,Hasvik,yes,ENHK,HAA,,https://avinor.no/en/airport/hasvik-airport/,https://en.wikipedia.org/wiki/Hasvik_Airport,
29261,ENHV,medium_airport,"Honningsvåg Airport, Valan",71.009697,25.983601,44,EU,NO,NO-54,Honningsvåg,yes,ENHV,HVG,,https://avinor.no/en/airport/honningsvag-airport/,https://en.wikipedia.org/wiki/Valan_Airport,
2581,ENKB,medium_airport,"Kristiansund Airport, Kvernberget",63.111801,7.82452,204,EU,NO,NO-15,Kvernberget,yes,ENKB,KSU,,https://avinor.no/en/airport/kristiansund-airport/,https://en.wikipedia.org/wiki/Kristiansund_Airport%2C_Kvernberget,"Kristiansund lufthavn, Kvernberget"
2583,ENKR,medium_airport,"Kirkenes Airport, Høybuktmoen",69.7258,29.8913,283,EU,NO,NO-54,Kirkenes,yes,ENKR,KKN,,https://avinor.no/en/airport/kirkenes-airport/,https://en.wikipedia.org/wiki/Kirkenes_Airport%2C_H%C3%B8ybuktmoen,
29264,ENLK,medium_airport,Leknes Airport,68.152496337891,13.609399795532,78,EU,NO,NO-18,Leknes,yes,ENLK,LKN,,https://avinor.no/en/airport/leknes-airport/,https://en.wikipedia.org/wiki/Leknes_Airport,Leknes lufthavn
29265,ENMH,medium_airport,Mehamn Airport,71.02970123291,27.826700210571,39,EU,NO,NO-54,Mehamn,yes,ENMH,MEH,,https://avinor.no/en/airport/mehamn-airport/,https://en.wikipedia.org/wiki/Mehamn_Airport,
2585,ENML,medium_airport,"Molde Airport, Årø",62.744701,7.2625,10,EU,NO,NO-15,Årø,yes,ENML,MOL,,https://avinor.no/en/airport/molde-airport/,https://en.wikipedia.org/wiki/Molde_Airport%2C_%C3%85r%C3%B8,Aro
2586,ENMS,medium_airport,"Mosjøen Airport, Kjærstad",65.783997,13.2149,237,EU,NO,NO-18,Mosjøen,yes,ENMS,MJF,,https://avinor.no/en/airport/mosjoen-airport/,https://en.wikipedia.org/wiki/Mosj%C3%B8en_Airport%2C_Kj%C3%A6rstad,
2587,ENNA,medium_airport,"Lakselv Airport, Banak",70.068802,24.973499,25,EU,NO,NO-54,Lakselv,yes,ENNA,LKL,,https://avinor.no/en/airport/lakselv-airport/,https://en.wikipedia.org/wiki/Lakselv_Airport%2C_Banak,North Cape Airport
29267,ENNM,small_airport,Namsos Airport,64.472198,11.5786,7,EU,NO,NO-50,Namsos,yes,ENNM,OSY,,https://avinor.no/en/airport/namsos-airport/,https://en.wikipedia.org/wiki/Namsos_Airport%2C_H%C3%B8knes%C3%B8ra,"Namsos lufthavn, Høknesøra"
2589,ENOL,medium_airport,Ørland Airport,63.69889831542970,9.604000091552730,28,EU,NO,NO-50,Ørland,yes,ENOL,OLA,,,https://en.wikipedia.org/wiki/Brekstad_Airport%2C_%C3%98rland,Orland
28114,ENOV,medium_airport,"Ørsta-Volda Airport, Hovden",62.180000305176,6.0741000175476,243,EU,NO,NO-15,Ørsta,yes,ENOV,HOV,,https://avinor.no/en/airport/orsta-volda-airport/,https://en.wikipedia.org/wiki/%C3%98rsta-Volda_Airport%2C_Hovden,
29277,ENRA,medium_airport,"Mo i Rana Airport, Røssvoll",66.363899230957,14.301400184631,229,EU,NO,NO-18,Mo i Rana,yes,ENRA,MQN,,https://avinor.no/en/airport/mo-i-rana-airport/,https://en.wikipedia.org/wiki/Mo_i_Rana_Airport%2C_R%C3%B8ssvoll,
29278,ENRM,medium_airport,"Rørvik Airport, Ryum",64.838302612305,11.14610004425,14,EU,NO,NO-50,Rørvik,yes,ENRM,RVK,,https://avinor.no/en/airport/rorvik-airport/,https://en.wikipedia.org/wiki/R%C3%B8rvik_Airport%2C_Ryum,
2591,ENRO,medium_airport,Røros Airport,62.578399658203,11.342300415039,2054,EU,NO,NO-50,Røros,yes,ENRO,RRS,,https://avinor.no/en/airport/roros-airport/,https://en.wikipedia.org/wiki/R%C3%B8ros_Airport,Roros
29279,ENRS,small_airport,Røst Airport,67.526482,12.101575,7,EU,NO,NO-18,Røst,yes,ENRS,RET,,https://avinor.no/en/airport/rost-airport/,https://en.wikipedia.org/wiki/R%C3%B8st_Airport,Rost Airport
2593,ENSB,medium_airport,"Svalbard Airport, Longyear",78.246101379395,15.465600013733,88,EU,NO,NO-21,Longyearbyen,yes,ENSB,LYR,,https://avinor.no/en/airport/svalbard-airport/,https://en.wikipedia.org/wiki/Svalbard_Airport%2C_Longyear,
29280,ENSD,small_airport,"Sandane Airport, Anda",61.830002,6.10583,196,EU,NO,NO-46,Sandane,yes,ENSD,SDN,,https://avinor.no/en/airport/sandane-airport/,https://en.wikipedia.org/wiki/Sandane_Airport%2C_Anda,
28116,ENSG,small_airport,"Sogndal Airport, Haukåsen",61.156101,7.13778,1633,EU,NO,NO-46,Sogndal,yes,ENSG,SOG,,https://avinor.no/en/airport/sogndal-airport/,"https://en.wikipedia.org/wiki/Sogndal_Airport,_Hauk%C3%A5sen",Haukåsen
29281,ENSH,medium_airport,"Svolvær Airport, Helle",68.243301,14.6692,27,EU,NO,NO-18,Svolvær,yes,ENSH,SVJ,,https://avinor.no/en/airport/svolvar-airport/,https://en.wikipedia.org/wiki/Svolv%C3%A6r_Airport%2C_Helle,"Svolvær lufthavn, Helle"
29282,ENSK,medium_airport,"Stokmarknes Airport, Skagen",68.578827,15.033417,11,EU,NO,NO-18,Hadsel,yes,ENSK,SKN,,https://avinor.no/en/airport/stokmarknes-airport/,https://en.wikipedia.org/wiki/Stokmarknes_Airport%2C_Skagen,"Stokmarknes lufthavn, Skagen"
2595,ENSO,medium_airport,"Stord Airport, Sørstokken",59.791901,5.34085,160,EU,NO,NO-46,Leirvik,yes,ENSO,SRP,,,https://en.wikipedia.org/wiki/Stord_Airport%2C_S%C3%B8rstokken,"Sorstokken, Sørstokken"
2596,ENSR,medium_airport,Sørkjosen Airport,69.786796569824,20.959400177002,16,EU,NO,NO-54,Sørkjosen,yes,ENSR,SOJ,,https://avinor.no/en/airport/sorkjosen-airport/,https://en.wikipedia.org/wiki/S%C3%B8rkjosen_Airport,
2597,ENSS,medium_airport,"Vardø Airport, Svartnes",70.355400085449,31.044900894165,42,EU,NO,NO-54,Vardø,yes,ENSS,VAW,,https://avinor.no/en/airport/vardo-airport/,https://en.wikipedia.org/wiki/Vard%C3%B8_Airport%2C_Svartnes,
2598,ENST,medium_airport,"Sandnessjøen Airport, Stokka",65.956802,12.4689,56,EU,NO,NO-18,Alstahaug,yes,ENST,SSJ,,https://avinor.no/en/airport/sandnessjoen-airport/,https://en.wikipedia.org/wiki/Sandnessj%C3%B8en_Airport%2C_Stokka,
2599,ENTC,large_airport,"Tromsø Airport, Langnes",69.683296,18.9189,31,EU,NO,NO-54,Tromsø,yes,ENTC,TOS,,http://www.avinor.no/en/airport/tromso,https://en.wikipedia.org/wiki/Troms%C3%B8_Airport,"Langnes, Tromsøya, Tromso"
2600,ENTO,medium_airport,"Sandefjord Airport, Torp",59.186699,10.2586,286,EU,NO,NO-39,Torp,yes,ENTO,TRF,,https://torp.no/en/welcome-to-torp-sandefjord-airport/,https://en.wikipedia.org/wiki/Sandefjord_Airport%2C_Torp,
2601,ENVA,large_airport,"Trondheim Airport, Værnes",63.457802,10.924,56,EU,NO,NO-50,Trondheim,yes,ENVA,TRD,,https://avinor.no/en/airport/trondheim-airport/,https://en.wikipedia.org/wiki/Trondheim_Airport%2C_V%C3%A6rnes,
29284,ENVD,medium_airport,Vadsø Airport,70.065299987793,29.844699859619,127,EU,NO,NO-54,Vadsø,yes,ENVD,VDS,,https://avinor.no/en/airport/vadso-airport/,https://en.wikipedia.org/wiki/Vads%C3%B8_Airport,
2602,ENZV,large_airport,"Stavanger Airport, Sola",58.876701,5.63778,29,EU,NO,NO-11,Stavanger,yes,ENZV,SVG,,http://www.avinor.no/en/airport/stavanger/,"https://en.wikipedia.org/wiki/Stavanger_Airport,_Sola","Sola Air Station, Stavanger lufthavn, Sola"
2604,EPBY,medium_airport,Bydgoszcz Ignacy Jan Paderewski Airport,53.096802,17.977699,235,EU,PL,PL-KP,Bydgoszcz,yes,EPBY,BZG,,http://www.plb.pl/,https://en.wikipedia.org/wiki/Bydgoszcz_Ignacy_Jan_Paderewski_Airport,"Szwederowo, Bromberg"
2608,EPGD,large_airport,Gdańsk Lech Wałęsa Airport,54.377602,18.4662,489,EU,PL,PL-PM,Gdańsk,yes,EPGD,GDN,,http://www.airport.gdansk.pl/,https://en.wikipedia.org/wiki/Gda%C5%84sk_Lech_Wa%C5%82%C4%99sa_Airport,Gdańsk-Rębiechowo
2609,EPKK,large_airport,Kraków John Paul II International Airport,50.077702,19.7848,791,EU,PL,PL-MA,Balice,yes,EPKK,KRK,,http://www.krakowairport.pl/en/,https://en.wikipedia.org/wiki/Kraków_John_Paul_II_International_Airport,Krakov
2613,EPKT,medium_airport,Katowice Wojciech Korfanty International Airport,50.476015,19.080705,995,EU,PL,PL-SL,Ożarowice,yes,EPKT,KTW,,http://katowice.airport.com,https://en.wikipedia.org/wiki/Katowice_International_Airport,"Pyrzowice, Dąbrowa Górnicza, Katowice, Silesia, GOP, Silesia Metropolis, Gliwice, Piekary Śląskie, Bytom, Zabrze, Sosnowiec"
309484,EPLB,medium_airport,Lublin Airport,51.240278,22.713611,633,EU,PL,PL-LU,Lublin,yes,EPLB,LUZ,,,https://en.wikipedia.org/wiki/Lublin_Airport,
2616,EPLL,medium_airport,Łódź Władysław Reymont Airport,51.721900939900000,19.3980998993,604,EU,PL,PL-LD,Łódź,yes,EPLL,LCJ,,,https://en.wikipedia.org/wiki/%C5%81%C3%B3d%C5%BA_W%C5%82adys%C5%82aw_Reymont_Airport,Lublinek
2622,EPMO,medium_airport,Modlin Airport,52.451099,20.6518,341,EU,PL,PL-MZ,Warsaw,yes,EPMO,WMI,,http://modlinairport.pl/,https://en.wikipedia.org/wiki/Warsaw_Modlin_Airport,Nowy Dwor Mazowiecki
2625,EPPO,medium_airport,Poznań-Ławica Airport,52.421001,16.8263,308,EU,PL,PL-WP,Poznań,yes,EPPO,POZ,,http://www.airport-poznan.com.pl/en/,https://en.wikipedia.org/wiki/Pozna%C5%84-%C5%81awica_Airport,
2628,EPRA,medium_airport,Radom Airport,51.389198,21.213301,610,EU,PL,PL-MZ,Radom,yes,EPRA,RDO,,http://lotnisko-radom.eu/pl/,https://en.wikipedia.org/wiki/Radom_Airport,"Radom Military Air Base, Radom-Sadków Airport"
2629,EPRZ,medium_airport,Rzeszów-Jasionka Airport,50.109791,22.024155,693,EU,PL,PL-PK,Jasionka,yes,EPRZ,RZE,,https://www.rzeszowairport.pl,https://en.wikipedia.org/wiki/Rzesz%C3%B3w-Jasionka_Airport,
2630,EPSC,medium_airport,"Szczecin-Goleniów ""Solidarność"" Airport",53.584702,14.9022,154,EU,PL,PL-ZP,Goleniow,yes,EPSC,SZZ,,http://www.airport.com.pl/en/index.php,https://en.wikipedia.org/wiki/Szczecin-Goleni%C3%B3w_%22Solidarno%C5%9B%C4%87%22_Airport,
2635,EPSY,medium_airport,Olsztyn-Mazury Airport,53.481899,20.9377,463,EU,PL,PL-WN,Olsztyn,yes,EPSY,SZY,,http://mazuryairport.pl/,https://en.wikipedia.org/wiki/Olsztyn-Mazury_Airport,
2637,EPWA,large_airport,Warsaw Chopin Airport,52.1656990051,20.967100143400000,362,EU,PL,PL-MZ,Warsaw,yes,EPWA,WAW,,http://www.lotnisko-chopina.pl/?lang=en,https://en.wikipedia.org/wiki/Warsaw_Frederic_Chopin_Airport,Okęcie
2638,EPWR,medium_airport,Copernicus Wrocław Airport,51.103719,16.882096,404,EU,PL,PL-DS,Wrocław,yes,EPWR,WRO,,http://www.airport.wroclaw.pl/en/index.php,https://en.wikipedia.org/wiki/Copernicus_Airport_Wroc%C5%82aw,"Strachowice, Breslau, Wroclaw"
2639,EPZG,medium_airport,Zielona Góra-Babimost Airport,52.138500213600000,15.7986001968,194,EU,PL,PL-LB,Babimost,yes,EPZG,IEG,,http://www.lotnisko.zielonagora.pl/,https://en.wikipedia.org/wiki/Zielona_G%C3%B3ra_Airport,
2646,ESDF,medium_airport,Ronneby Airport,56.266701,15.265,191,EU,SE,SE-K,Ronneby,yes,ESDF,RNB,,https://www.swedavia.com/ronneby/,https://en.wikipedia.org/wiki/Ronneby_Airport,
2648,ESGG,large_airport,Gothenburg-Landvetter Airport,57.662799835205,12.279800415039,506,EU,SE,SE-Q,Gothenburg,yes,ESGG,GOT,,https://www.swedavia.com/landvetter/,https://en.wikipedia.org/wiki/Gothenburg-Landvetter_Airport,Göteborg-Landvetter
2649,ESGJ,medium_airport,Jönköping Airport,57.757598876953100,14.068699836731000,741,EU,SE,SE-F,Jönköping,yes,ESGJ,JKG,,http://www.lfv.se/templates/LFV_AirportStartPage____1672.aspx,https://en.wikipedia.org/wiki/J%C3%B6nk%C3%B6ping_Airport,
2654,ESGT,medium_airport,Trollhättan-Vänersborg Airport,58.31809997558590,12.345000267028800,137,EU,SE,SE-Q,Trollhättan,yes,ESGT,THN,,,https://en.wikipedia.org/wiki/Trollh%C3%A4ttan-V%C3%A4nersborg_Airport,
2659,ESKM,medium_airport,Mora Airport,60.957901,14.5114,634,EU,SE,SE-W,Mora,yes,ESKM,MXX,,,https://en.wikipedia.org/wiki/Mora-Siljan_Airport,
2660,ESKN,medium_airport,Stockholm Skavsta Airport,58.788601,16.912201,140,EU,SE,SE-D,Nyköping,yes,ESKN,NYO,,,https://en.wikipedia.org/wiki/Stockholm-Skavsta_Airport,
316498,ESKS,medium_airport,Scandinavian Mountains Airport,61.158393,12.842503,1608,EU,SE,SE-W,Malung-Sälen,yes,ESKS,SCR,,https://scandinavianmountains.se/en/home/,https://en.wikipedia.org/wiki/Scandinavian_Mountains_Airport,"Sälens Flygplats, Trysil"
2664,ESMK,medium_airport,Kristianstad Airport,55.92169952392580,14.08549976348880,76,EU,SE,SE-M,Kristianstad,yes,ESMK,KID,,,https://en.wikipedia.org/wiki/Kristianstad_Airport,
2668,ESMQ,medium_airport,Kalmar Airport,56.685501,16.2876,17,EU,SE,SE-H,Kalmar,yes,ESMQ,KLR,,,https://en.wikipedia.org/wiki/Kalmar_Airport,
2669,ESMS,medium_airport,Malmö Sturup Airport,55.54833,13.35333,236,EU,SE,SE-M,Malmö,yes,ESMS,MMX,,http://www.swedavia.com/malmo/,https://en.wikipedia.org/wiki/Malm%C3%B6_Airport,
2670,ESMT,medium_airport,Halmstad Airport,56.69110107421880,12.820199966430700,101,EU,SE,SE-N,Halmstad,yes,ESMT,HAD,,,https://en.wikipedia.org/wiki/Halmstad_Airport,
2672,ESMX,medium_airport,Växjö Kronoberg Airport,56.929100036621100,14.727999687194800,610,EU,SE,SE-G,Växjö,yes,ESMX,VXO,,,https://en.wikipedia.org/wiki/V%C3%A4xj%C3%B6_Airport,
2675,ESND,small_airport,Sveg Airport,62.047798,14.4229,1178,EU,SE,SE-Z,Sveg,yes,ESND,EVG,,,https://en.wikipedia.org/wiki/Sveg_Airport,
2676,ESNG,medium_airport,Gällivare Airport,67.13240051269530,20.814599990844700,1027,EU,SE,SE-BD,Gällivare,yes,ESNG,GEV,,,https://en.wikipedia.org/wiki/G%C3%A4llivare_Airport,
2679,ESNK,medium_airport,Kramfors-Sollefteå Höga Kusten Airport,63.048599,17.7689,34,EU,SE,SE-Y,Nyland,yes,ESNK,KRF,,,https://en.wikipedia.org/wiki/Kramfors_Airport,
2680,ESNL,medium_airport,Lycksele Airport,64.548302,18.7162,705,EU,SE,SE-AC,Lycksele,yes,ESNL,LYC,,,https://en.wikipedia.org/wiki/Lycksele_Airport,
2682,ESNN,medium_airport,Sundsvall-Härnösand Airport,62.528099060058600,17.443899154663100,16,EU,SE,SE-Y,Sundsvall/ Härnösand,yes,ESNN,SDL,,,https://en.wikipedia.org/wiki/Sundsvall-H%C3%A4rn%C3%B6sand_Airport,
2683,ESNO,medium_airport,Örnsköldsvik Airport,63.40829849243160,18.989999771118200,354,EU,SE,SE-Y,Örnsköldsvik,yes,ESNO,OER,,,https://en.wikipedia.org/wiki/%C3%96rnsk%C3%B6ldsvik_Airport,
2685,ESNQ,medium_airport,Kiruna Airport,67.821998596191,20.336799621582,1508,EU,SE,SE-BD,Kiruna,yes,ESNQ,KRN,,https://www.swedavia.com/kiruna/,https://en.wikipedia.org/wiki/Kiruna_Airport,
2687,ESNS,medium_airport,Skellefteå Airport,64.62480163574220,21.076900482177700,157,EU,SE,SE-AC,Skellefteå,yes,ESNS,SFT,,,https://en.wikipedia.org/wiki/Skellefte%C3%A5_Airport,
2689,ESNU,medium_airport,Umeå Airport,63.791801452637,20.282800674438,24,EU,SE,SE-AC,Umeå,yes,ESNU,UME,,https://www.swedavia.com/umea/,https://en.wikipedia.org/wiki/Ume%C3%A5_Airport,
2690,ESNV,medium_airport,Vilhelmina South Lapland Airport,64.579102,16.833599,1140,EU,SE,SE-AC,Vilhelmina,yes,ESNV,VHM,,,https://en.wikipedia.org/wiki/Vilhelmina_Airport,
2691,ESNX,medium_airport,Arvidsjaur Airport,65.59030151367190,19.28190040588380,1245,EU,SE,SE-BD,Arvidsjaur,yes,ESNX,AJR,,,https://en.wikipedia.org/wiki/Arvidsjaur_Airport,
29358,ESNZ,medium_airport,Åre Östersund Airport,63.194135,14.500322,1233,EU,SE,SE-Z,Östersund,yes,ESNZ,OSD,,https://www.swedavia.com/ostersund/,https://en.wikipedia.org/wiki/%C3%85re_%C3%96stersund_Airport,"F4 Frösön Air Base, ESPC"
2693,ESOE,medium_airport,Örebro Airport,59.22370147705080,15.038000106811500,188,EU,SE,SE-T,Örebro,yes,ESOE,ORB,,,https://en.wikipedia.org/wiki/%C3%96rebro_Airport,
2694,ESOH,small_airport,Hagfors Airport,60.0201,13.5789,474,EU,SE,SE-S,Råda,yes,ESOH,HFS,,,https://en.wikipedia.org/wiki/Hagfors_Airport,
2695,ESOK,medium_airport,Karlstad Airport,59.444698333700000,13.337400436400000,352,EU,SE,SE-S,Karlstad,yes,ESOK,KSD,,,https://en.wikipedia.org/wiki/Karlstad_Airport,
2696,ESOW,medium_airport,Stockholm Västerås Airport,59.58940124511720,16.63360023498540,21,EU,SE,SE-U,Stockholm / Västerås,yes,ESOW,VST,,,https://en.wikipedia.org/wiki/Stockholm-V%C3%A4ster%C3%A5s_Airport,
2697,ESPA,medium_airport,Luleå Airport,65.5438,22.122,65,EU,SE,SE-BD,Luleå,yes,ESPA,LLA,,https://www.swedavia.com/lulea/,https://en.wikipedia.org/wiki/Lule%C3%A5_Airport,Kallax Air Base
2701,ESSA,large_airport,Stockholm-Arlanda Airport,59.64849,17.928829,137,EU,SE,SE-AB,Stockholm,yes,ESSA,ARN,,http://www.swedavia.se/arlanda/,https://en.wikipedia.org/wiki/Stockholm-Arlanda_Airport,
2702,ESSB,medium_airport,Stockholm-Bromma Airport,59.354400634765600,17.941699981689500,47,EU,SE,SE-AB,Stockholm,yes,ESSB,BMA,,,https://en.wikipedia.org/wiki/Stockholm-Bromma_Airport,
2703,ESSD,medium_airport,Dala Airport,60.422001,15.5152,503,EU,SE,SE-W,Borlange,yes,ESSD,BLE,,https://www.dalaflyget.se/,https://en.wikipedia.org/wiki/Borl%C3%A4nge_Airport,
2706,ESSL,medium_airport,Linköping City Airport,58.4062004089,15.680500030500000,172,EU,SE,SE-E,Linköping,yes,ESSL,LPI,,http://www.linkopingsflygplats.se/,https://en.wikipedia.org/wiki/Link%C3%B6ping_SAAB_Airport,
2707,ESSP,medium_airport,Norrköping Airport,58.586299896240200,16.250600814819300,32,EU,SE,SE-E,Norrköping,yes,ESSP,NRK,,,https://en.wikipedia.org/wiki/Norrk%C3%B6ping_Airport,Kungsangen
2708,ESST,medium_airport,Torsby Airport,60.1576,12.9913,393,EU,SE,SE-S,Torsby,yes,ESST,TYF,,http://www.torsbyflygplats.se,https://en.wikipedia.org/wiki/Torsby_Airport,
2710,ESSV,medium_airport,Visby Airport,57.662799835205,18.346200942993,164,EU,SE,SE-I,Visby,yes,ESSV,VBY,,https://www.swedavia.com/visby/,https://en.wikipedia.org/wiki/Visby_Airport,
2711,ESTA,medium_airport,Ängelholm-Helsingborg Airport,56.29610061645510,12.847100257873500,68,EU,SE,SE-M,Ängelholm,yes,ESTA,AGH,,http://www.lfv.se/templates/LFV_AirportStartPage____4777.aspx,https://en.wikipedia.org/wiki/%C3%84ngelholm-Helsingborg_Airport,"ESDB, Ängelholm Air Base"
2715,ESUP,small_airport,Pajala Airport,67.244569,23.074894,542,EU,SE,SE-BD,,yes,ESUP,PJA,,,https://en.wikipedia.org/wiki/Pajala_Airport,
2716,ESUT,small_airport,Hemavan Airport,65.806099,15.0828,1503,EU,SE,SE-AC,Hemavan,yes,ESUT,HMV,,,https://en.wikipedia.org/wiki/Hemavan_Airport,
2734,ETMN,medium_airport,Nordholz Naval Airbase,53.767689,8.659201,74,EU,DE,DE-NI,Cuxhaven,yes,ETMN,FCN,,,https://en.wikipedia.org/wiki/Nordholz_Naval_Airbase,Fliegerhorst Nordholz
2739,ETNL,medium_airport,Rostock-Laage Airport,53.9182014465,12.278300285300000,138,EU,DE,DE-MV,Rostock,yes,ETNL,RLG,,,https://en.wikipedia.org/wiki/Rostock-Laage_Airport,
2758,EVRA,large_airport,Riga International Airport,56.923599,23.9711,36,EU,LV,LV-062,Riga,yes,EVRA,RIX,,http://www.riga-airport.com/,https://en.wikipedia.org/wiki/Riga_International_Airport,
2760,EYKA,medium_airport,Kaunas International Airport,54.96390151977540,24.084800720214800,256,EU,LT,LT-KU,Kaunas,yes,EYKA,KUN,,http://www.kaunasair.lt/index.php?lang=2&m=2&p=210,https://en.wikipedia.org/wiki/Kaunas_Airport,Kauno tarptautinis Oro Uostas
2762,EYPA,medium_airport,Palanga International Airport,55.973201751709000,21.093900680542000,33,EU,LT,LT-KL,Palanga,yes,EYPA,PLQ,,http://www.palanga-airport.lt/,https://en.wikipedia.org/wiki/Palanga_International_Airport,
2766,EYVI,large_airport,Vilnius International Airport,54.634102,25.285801,648,EU,LT,LT-VL,Vilnius,yes,EYVI,VNO,,http://www.vilnius-airport.lt/en/,https://en.wikipedia.org/wiki/Vilnius_International_Airport,
31199,GB-FOA,small_airport,Foula Airfield,60.121725,-2.053202,150,EU,GB,GB-SCT,Foula,yes,,FOA,,,https://en.wikipedia.org/wiki/Foula_Airfield,EGFO
3972,LATI,large_airport,Tirana International Airport Mother Teresa,41.4147,19.7206,126,EU,AL,AL-02,Rinas,yes,LATI,TIA,,http://www.tirana-airport.com/,https://en.wikipedia.org/wiki/Tirana_International_Airport_N%C3%ABn%C3%AB_Tereza,"Rinas International Airport, Aeroporti Nënë Tereza"
3974,LBBG,large_airport,Burgas Airport,42.56959915161130,27.515199661254900,135,EU,BG,BG-02,Burgas,yes,LBBG,BOJ,,,https://en.wikipedia.org/wiki/Burgas_Airport,
3976,LBPD,medium_airport,Plovdiv International Airport,42.067799,24.8508,597,EU,BG,BG-16,Plovdiv,yes,LBPD,PDV,,http://www.plovdivairport.com/,https://en.wikipedia.org/wiki/Plovdiv_International_Airport,
3977,LBSF,large_airport,Sofia Airport,42.696357,23.417671,1742,EU,BG,BG-22,Sofia,yes,LBSF,SOF,,http://sofia-airport.bg,https://en.wikipedia.org/wiki/Sofia_Airport,"Sofia International Airport, Vrazhdebna Air Base"
3979,LBWN,large_airport,Varna Airport,43.232101,27.8251,230,EU,BG,BG-03,Varna,yes,LBWN,VAR,,,https://en.wikipedia.org/wiki/Varna_Airport,
3984,LDDU,medium_airport,Dubrovnik Ruđer Bošković Airport,42.562247,18.265543,527,EU,HR,HR-19,Čilipi,yes,LDDU,DBV,,,https://en.wikipedia.org/wiki/Dubrovnik_Airport,
3986,LDOS,medium_airport,Osijek Airport,45.4627,18.8102,290,EU,HR,HR-14,Osijek,yes,LDOS,OSI,,,https://en.wikipedia.org/wiki/Osijek_Airport,
3987,LDPL,medium_airport,Pula Airport,44.89350128173830,13.922200202941900,274,EU,HR,HR-18,Pula,yes,LDPL,PUY,,,https://en.wikipedia.org/wiki/Pula_Airport,
3989,LDRI,medium_airport,Rijeka Airport,45.21689987182620,14.570300102233900,278,EU,HR,HR-08,Rijeka,yes,LDRI,RJK,,,https://en.wikipedia.org/wiki/Rijeka_Airport,"Reka, Rika, Fiume"
3990,LDSB,medium_airport,Brač Airport,43.285702,16.679701,1776,EU,HR,HR-17,Bol,yes,LDSB,BWK,,,https://en.wikipedia.org/wiki/Bra%C4%8D_Airport,Bol Airport
3991,LDSP,medium_airport,Split Airport,43.53889846801760,16.29800033569340,79,EU,HR,HR-17,Split,yes,LDSP,SPU,,,https://en.wikipedia.org/wiki/Split_Airport,
3993,LDZA,large_airport,Zagreb Airport,45.742901,16.0688,353,EU,HR,HR-21,Zagreb,yes,LDZA,ZAG,,,https://en.wikipedia.org/wiki/Zagreb_Airport,Pleso
3994,LDZD,medium_airport,Zadar Airport,44.094988,15.354879,289,EU,HR,HR-13,Zemunik Donji (Zadar),yes,LDZD,ZAD,,https://www.zadar-airport.hr/en,https://en.wikipedia.org/wiki/Zadar_Airport,
3997,LEAL,large_airport,Alicante-Elche Miguel Hernández Airport,38.2822,-0.558156,142,EU,ES,ES-VC,Alicante,yes,LEAL,ALC,,https://www.aena.es/en/alicante-elche.html,https://en.wikipedia.org/wiki/Alicante_Airport,
3998,LEAM,medium_airport,Almería Airport,36.843899,-2.3701,70,EU,ES,ES-AN,Almería,yes,LEAM,LEI,,https://www.aena.es/en/almeria.html,https://en.wikipedia.org/wiki/Almer%C3%ADa_International_Airport,
3999,LEAS,medium_airport,Asturias Airport,43.563599,-6.03462,416,EU,ES,ES-AS,Ranón,yes,LEAS,OVD,,https://www.aena.es/en/asturias.html,https://en.wikipedia.org/wiki/Asturias_Airport,
4001,LEBB,medium_airport,Bilbao Airport,43.301102,-2.91061,138,EU,ES,ES-PV,Bilbao,yes,LEBB,BIO,,https://www.aena.es/en/bilbao.html,https://en.wikipedia.org/wiki/Bilbao_Airport,
4003,LEBG,medium_airport,Burgos Airport,42.357601,-3.62076,2962,EU,ES,ES-CL,Burgos,yes,LEBG,RGS,,https://www.aena.es/en/burgos.html,https://en.wikipedia.org/wiki/Burgos_Airport,
4004,LEBL,large_airport,Josep Tarradellas Barcelona-El Prat Airport,41.2971,2.07846,12,EU,ES,ES-CT,Barcelona,yes,LEBL,BCN,,https://www.aena.es/en/josep-tarradellas-barcelona-el-prat.html,https://en.wikipedia.org/wiki/Barcelona%E2%80%93El_Prat_Airport,"El Prat Airport,Barcelona International,Josep Tarradellas Barcelona-El Prat Airport"
4005,LEBZ,medium_airport,Badajoz Airport,38.8913,-6.82133,609,EU,ES,ES-EX,Badajoz,yes,LEBZ,BJZ,,https://www.aena.es/en/badajoz.html,https://en.wikipedia.org/wiki/Badajoz_Airport,Talavera La Real Airport
300859,LECH,medium_airport,Castellón-Costa Azahar Airport,40.213889,0.073333,1182,EU,ES,ES-VC,Castellón de la Plana,yes,LECH,CDT,,https://www.aeroportcastello.com/,https://en.wikipedia.org/wiki/Castell%C3%B3n%E2%80%93Costa_Azahar_Airport,
4007,LECO,medium_airport,A Coruña Airport,43.302101,-8.37726,326,EU,ES,ES-GA,Culleredo,yes,LECO,LCG,,https://www.aena.es/en/a-coruna.html,https://en.wikipedia.org/wiki/A_Coru%C3%B1a_Airport,"The Groyne, La Coruña"
308328,LEDA,medium_airport,Lleida-Alguaire Airport,41.728185,0.535023,1152,EU,ES,ES-CT,Lleida,yes,LEDA,ILD,,http://www.aeroportlleida.cat/?L=2,https://en.wikipedia.org/wiki/Lleida-Alguaire_Airport,
4010,LEGE,medium_airport,Girona-Costa Brava Airport,41.904639,2.761774,468,EU,ES,ES-CT,Girona,yes,LEGE,GRO,,https://www.aena.es/en/girona-costa-brava.html,https://en.wikipedia.org/wiki/Girona-Costa_Brava_Airport,"Girona,Costa Brava,Girona-Costa Brava"
4011,LEGR,medium_airport,F.G.L. Airport Granada-Jaén Airport,37.188702,-3.77736,1860,EU,ES,ES-AN,Granada,yes,LEGR,GRX,,https://www.aena.es/en/f.g.l.-granada-jaen.html,https://en.wikipedia.org/wiki/Federico_Garc%C3%ADa_Lorca_Airport,
4013,LEIB,large_airport,Ibiza Airport,38.872898,1.37312,24,EU,ES,ES-IB,Ibiza (Eivissa),yes,LEIB,IBZ,,https://www.aena.es/en/ibiza.html,https://en.wikipedia.org/wiki/Ibiza_Airport,
4015,LEJR,medium_airport,Jerez Airport,36.744598,-6.06011,93,EU,ES,ES-AN,Jerez de la Frontera,yes,LEJR,XRY,,https://www.aena.es/en/jerez.html,https://en.wikipedia.org/wiki/Jerez_Airport,
4018,LELN,medium_airport,León Airport,42.589001,-5.65556,3006,EU,ES,ES-CL,León,yes,LELN,LEN,,https://www.aena.es/en/leon.html,https://en.wikipedia.org/wiki/Le%C3%B3n_Airport,
4019,LEMD,large_airport,Adolfo Suárez Madrid–Barajas Airport,40.471926,-3.56264,1998,EU,ES,ES-MD,Madrid,yes,LEMD,MAD,,https://www.aena.es/en/adolfo-suarez-madrid-barajas.html,https://en.wikipedia.org/wiki/Adolfo_Su%C3%A1rez_Madrid%E2%80%93Barajas_Airport,"Leganés, Madrid Barajas International Airport"
4020,LEMG,large_airport,Málaga-Costa del Sol Airport,36.6749,-4.49911,53,EU,ES,ES-AN,Málaga,yes,LEMG,AGP,,https://www.aena.es/en/malaga-costa-del-sol.html,https://en.wikipedia.org/wiki/M%C3%A1laga_Airport,"Costa del Sol, Malaga"
4021,LEMH,medium_airport,Menorca Airport,39.862598,4.21865,302,EU,ES,ES-IB,Mahón (Maó),yes,LEMH,MAH,,https://www.aena.es/en/menorca.html,https://en.wikipedia.org/wiki/Menorca_Airport,
308134,LEMI,medium_airport,Región de Murcia International Airport,37.803,-1.125,644,EU,ES,ES-MC,Corvera,yes,LEMI,RMU,,https://www.aena.es/en/internacional-region-de-murcia.html,https://en.wikipedia.org/wiki/Murcia-Corvera_Airport,
4035,LEPA,large_airport,Palma de Mallorca Airport,39.551701,2.73881,27,EU,ES,ES-IB,Palma de Mallorca,yes,LEPA,PMI,,https://www.aena.es/en/palma-de-mallorca.html,https://en.wikipedia.org/wiki/Son_Sant_Joan_Airport,"Son Sant Joan Airport, LESJ"
4025,LEPP,medium_airport,Pamplona Airport,42.77,-1.64633,1504,EU,ES,ES-NC,Pamplona,yes,LEPP,PNA,,https://www.aena.es/en/pamplona.html,https://en.wikipedia.org/wiki/Pamplona_Airport,
4031,LERS,medium_airport,Reus Airport,41.1474,1.16717,233,EU,ES,ES-CT,Reus,yes,LERS,REU,,https://www.aena.es/en/reus.html,https://en.wikipedia.org/wiki/Reus_Airport,
4033,LESA,medium_airport,Salamanca Airport,40.952099,-5.50199,2595,EU,ES,ES-CL,Salamanca,yes,LESA,SLM,,https://www.aena.es/en/salamanca.html,https://en.wikipedia.org/wiki/Salamanca_Airport,
4037,LESO,medium_airport,San Sebastián Airport,43.356499,-1.79061,16,EU,ES,ES-PV,Hondarribia,yes,LESO,EAS,,https://www.aena.es/en/san-sebastian.html,https://en.wikipedia.org/wiki/San_Sebasti%C3%A1n_Airport,
4038,LEST,large_airport,Santiago-Rosalía de Castro Airport,42.896301,-8.41514,1213,EU,ES,ES-GA,Santiago de Compostela,yes,LEST,SCQ,,https://www.aena.es/en/santiago-rosalia-de-castro.html,https://en.wikipedia.org/wiki/Santiago_de_Compostela_Airport,
4039,LESU,small_airport,Pirineus - la Seu d'Urgel Airport,42.3386,1.40917,2625,EU,ES,ES-CT,La Seu d'Urgell Pyrenees and Andorra,yes,LESU,LEU,,http://www10.gencat.net/ptop/AppJava/cat/aerotrans/aerodroms/aerodroms/pirineus.jsp,https://en.wikipedia.org/wiki/La_Seu_d'Urgell_Airport,"Montferrer, Castellbò"
4042,LEVC,medium_airport,Valencia Airport,39.4893,-0.481625,240,EU,ES,ES-VC,Valencia,yes,LEVC,VLC,,https://www.aena.es/en/valencia.html,https://en.wikipedia.org/wiki/Valencia_Airport,
4043,LEVD,medium_airport,Valladolid Airport,41.7061,-4.85194,2776,EU,ES,ES-CL,Valladolid,yes,LEVD,VLL,,https://www.aena.es/en/valladolid.html,https://en.wikipedia.org/wiki/Valladolid_Airport,
4045,LEVT,medium_airport,Vitoria Airport,42.882801,-2.72447,1682,EU,ES,ES-PV,Alava,yes,LEVT,VIT,,https://www.aena.es/en/vitoria.html,https://en.wikipedia.org/wiki/Vitoria_Airport,"Vitoria,Foronda"
4046,LEVX,medium_airport,Vigo Airport,42.2318,-8.62677,856,EU,ES,ES-GA,Vigo,yes,LEVX,VGO,,https://www.aena.es/en/vigo.html,https://en.wikipedia.org/wiki/Vigo-Peinador_Airport,
4047,LEXJ,medium_airport,Seve Ballesteros-Santander Airport,43.427101,-3.82001,16,EU,ES,ES-CB,Santander,yes,LEXJ,SDR,,https://www.aena.es/en/seve-ballesteros-santander.html,https://en.wikipedia.org/wiki/Santander_Airport,
4048,LEZG,medium_airport,Zaragoza Airport,41.666199,-1.04155,863,EU,ES,ES-AR,Zaragoza,yes,LEZG,ZAZ,,https://www.aena.es/en/zaragoza.html,https://en.wikipedia.org/wiki/Zaragoza_Airport,
4049,LEZL,medium_airport,Sevilla Airport,37.417999,-5.89311,112,EU,ES,ES-AN,Sevilla,yes,LEZL,SVQ,,https://www.aena.es/en/seville.html,https://en.wikipedia.org/wiki/San_Pablo_Airport,
4060,LFBD,large_airport,Bordeaux-Mérignac Airport,44.8283,-0.715556,162,EU,FR,FR-NAQ,Bordeaux/Mérignac,yes,LFBD,BOD,,https://www.bordeaux.aeroport.fr/,https://en.wikipedia.org/wiki/Bordeaux%E2%80%93M%C3%A9rignac_Airport,
4061,LFBE,medium_airport,Bergerac Dordogne Périgord Airport,44.825298,0.518611,171,EU,FR,FR-NAQ,Bergerac/Roumanière,yes,LFBE,EGC,,https://www.bergerac.aeroport.fr/,https://en.wikipedia.org/wiki/Bergerac_Dordogne_P%C3%A9rigord_Airport,
4064,LFBH,medium_airport,La Rochelle-Île de Ré Airport,46.17919921875,-1.1952799558639500,74,EU,FR,FR-NAQ,La Rochelle/Île de Ré,yes,LFBH,LRH,,,https://en.wikipedia.org/wiki/La_Rochelle_-_%C3%8Ele_de_R%C3%A9_Airport,Laleu Airport
4065,LFBI,medium_airport,Poitiers-Biard Airport,46.5877,0.306666,423,EU,FR,FR-NAQ,Poitiers/Biard,yes,LFBI,PIS,,https://www.poitiers.aeroport.fr/,https://en.wikipedia.org/wiki/Poitiers_-_Biard_Airport,
4067,LFBL,medium_airport,Limoges Airport,45.86280059814450,1.1794400215148900,1300,EU,FR,FR-NAQ,Limoges/Bellegarde,yes,LFBL,LIG,,,https://en.wikipedia.org/wiki/Limoges_-_Bellegarde_Airport,
4070,LFBO,large_airport,Toulouse-Blagnac Airport,43.629101,1.36382,499,EU,FR,FR-OCC,Toulouse/Blagnac,yes,LFBO,TLS,,http://www.toulouse.aeroport.fr/,https://en.wikipedia.org/wiki/Toulouse_Blagnac_International_Airport,
4071,LFBP,medium_airport,Pau Pyrénées Airport,43.380001,-0.418611,616,EU,FR,FR-NAQ,Pau/Pyrénées (Uzein),yes,LFBP,PUF,,https://www.pau.aeroport.fr/passenger/,https://en.wikipedia.org/wiki/Pau_Pyr%C3%A9n%C3%A9es_Airport,
4073,LFBT,medium_airport,Tarbes-Lourdes-Pyrénées Airport,43.178699,-0.006439,1260,EU,FR,FR-OCC,Tarbes/Lourdes/Pyrénées,yes,LFBT,LDE,,https://www.tlp.aeroport.fr/,https://en.wikipedia.org/wiki/Tarbes-Lourdes-Pyr%C3%A9n%C3%A9es_Airport,
4077,LFBZ,medium_airport,Biarritz-Anglet-Bayonne Airport,43.4683333,-1.5311111,245,EU,FR,FR-NAQ,Biarritz/Anglet/Bayonne,yes,LFBZ,BIQ,,,https://en.wikipedia.org/wiki/Biarritz_-_Anglet_-_Bayonne_Airport,
4082,LFCK,medium_airport,Castres-Mazamet Airport,43.55630111694340,2.289180040359500,788,EU,FR,FR-OCC,Castres/Mazamet,yes,LFCK,DCM,,,https://en.wikipedia.org/wiki/Castres-Mazamet_Airport,
4086,LFCR,medium_airport,Rodez–Aveyron Airport,44.407902,2.48267,1910,EU,FR,FR-OCC,Rodez/Marcillac,yes,LFCR,RDZ,,https://www.aeroport-rodez.fr/en/,https://en.wikipedia.org/wiki/Rodez%E2%80%93Aveyron_Airport,
28818,LFEA,small_airport,Aérodrome de Belle Île,47.325256,-3.201255,171,EU,FR,FR-BRE,Bangor,yes,LFEA,BIC,,,https://fr.wikipedia.org/wiki/Aérodrome_de_Belle-Île,Palais-Belle-İle-en-Mer Aerodrome
28820,LFEC,small_airport,Ouessant Airport,48.4632,-5.06358,142,EU,FR,FR-BRE,Ushant,yes,LFEC,OUI,,,https://en.wikipedia.org/wiki/Ushant_Airport,
4101,LFEY,small_airport,Île d'Yeu Airport,46.718601,-2.39111,79,EU,FR,FR-PDL,Île d'Yeu,yes,LFEY,IDY,,,https://en.wikipedia.org/wiki/%C3%8Ele_d'Yeu_Aerodrome,
4107,LFGJ,medium_airport,Dole-Tavaux Airport,47.042686,5.435063,645,EU,FR,FR-BFC,Dole/Tavaux,yes,LFGJ,DLE,,https://www.aeroportdolejura.com/,https://en.wikipedia.org/wiki/Dole%E2%80%93Jura_Airport,Dole–Jura
4111,LFHP,medium_airport,Le Puy-Loudes Airfield,45.0807,3.76289,2731,EU,FR,FR-ARA,Le Puy/Loudes,yes,LFHP,LPY,,,https://en.wikipedia.org/wiki/Le_Puy_-_Loudes_Airport,
4120,LFJL,medium_airport,Metz-Nancy-Lorraine Airport,48.982101,6.25132,870,EU,FR,FR-GES,Goin,yes,LFJL,ETZ,,https://lorraineaeroport.com/,https://en.wikipedia.org/wiki/Metz-Nancy-Lorraine_Airport,
4123,LFKB,medium_airport,Bastia-Poretta Airport,42.55270004272460,9.48373031616211,26,EU,FR,FR-COR,Bastia/Poretta,yes,LFKB,BIA,,,https://en.wikipedia.org/wiki/Bastia_-_Poretta_Airport,
4124,LFKC,medium_airport,Calvi-Sainte-Catherine Airport,42.5244444,8.7930556,209,EU,FR,FR-COR,Calvi/Sainte-Catherine,yes,LFKC,CLY,,,https://en.wikipedia.org/wiki/Calvi_-_Sainte-Catherine_Airport,
4125,LFKF,medium_airport,Figari Sud-Corse Airport,41.500599,9.09778,85,EU,FR,FR-COR,Figari Sud-Corse,yes,LFKF,FSC,,,https://en.wikipedia.org/wiki/Figari_Sud-Corse_Airport,
4126,LFKJ,medium_airport,Ajaccio-Napoléon Bonaparte Airport,41.92359924316410,8.8029203414917,18,EU,FR,FR-COR,Ajaccio/Napoléon Bonaparte,yes,LFKJ,AJA,,,https://en.wikipedia.org/wiki/Ajaccio_-_Campo_dell'Oro_Airport,
4131,LFLB,medium_airport,Chambéry Savoie Mont Blanc Airport,45.6381,5.88023,779,EU,FR,FR-ARA,Viviers-du-Lac,yes,LFLB,CMF,,,https://en.wikipedia.org/wiki/Chamb%C3%A9ry_Airport,
4132,LFLC,medium_airport,Clermont-Ferrand Auvergne Airport,45.786701,3.16917,1090,EU,FR,FR-ARA,Clermont-Ferrand/Auvergne,yes,LFLC,CFE,,https://www.clermont-aeroport.com/en,https://en.wikipedia.org/wiki/Clermont-Ferrand_Auvergne_Airport,
4137,LFLL,large_airport,Lyon Saint-Exupéry Airport,45.725556,5.081111,821,EU,FR,FR-ARA,Lyon,yes,LFLL,LYS,,https://www.lyonaeroports.com/,https://en.wikipedia.org/wiki/Saint-Exup%C3%A9ry_International_Airport,
4141,LFLP,medium_airport,Annecy Haute-Savoie Mont Blanc Airport,45.928947,6.0987,1521,EU,FR,FR-ARA,Epagny Metz-Tessy,yes,LFLP,NCY,,,https://en.wikipedia.org/wiki/Annecy_-_Haute-Savoie_-_Mont_Blanc_Airport,Annecy-Meythet
4142,LFLS,medium_airport,Grenoble-Isère Airport,45.3629,5.32937,1302,EU,FR,FR-ARA,Saint-Étienne-de-Saint-Geoirs,yes,LFLS,GNB,,,https://en.wikipedia.org/wiki/Grenoble-Is%C3%A8re_Airport,
4146,LFLW,medium_airport,Aurillac Airport,44.89139938354490,2.4219400882720900,2096,EU,FR,FR-ARA,Aurillac,yes,LFLW,AUR,,,https://en.wikipedia.org/wiki/Aurillac_Airport,
4154,LFMK,medium_airport,Carcassonne Airport,43.216,2.30632,433,EU,FR,FR-OCC,Carcassonne/Salvaza,yes,LFMK,CCF,,https://www.aeroport-carcassonne.com/,https://en.wikipedia.org/wiki/Carcassonne_Salvaza_Airport,
4155,LFML,large_airport,Marseille Provence Airport,43.438088,5.2125,74,EU,FR,FR-PAC,Marseille,yes,LFML,MRS,,https://www.marseille.aeroport.fr/,https://en.wikipedia.org/wiki/Marseille_Provence_Airport,
4156,LFMN,large_airport,Nice-Côte d'Azur Airport,43.658401,7.21587,12,EU,FR,FR-PAC,Nice,yes,LFMN,NCE,,https://www.nice.aeroport.fr/en,https://en.wikipedia.org/wiki/C%C3%B4te_d'Azur_International_Airport,
4158,LFMP,medium_airport,Perpignan-Rivesaltes (Llabanère) Airport,42.74039840698240,2.8706700801849400,144,EU,FR,FR-OCC,Perpignan/Rivesaltes,yes,LFMP,PGF,,,https://en.wikipedia.org/wiki/Perpignan_-_Rivesaltes_Airport,
4161,LFMT,medium_airport,Montpellier-Méditerranée Airport,43.576199,3.96301,17,EU,FR,FR-OCC,Montpellier/Méditerranée,yes,LFMT,MPL,,https://www.montpellier.aeroport.fr/,https://en.wikipedia.org/wiki/Montpellier_-_M%C3%A9diterran%C3%A9e_Airport,
4162,LFMU,medium_airport,Béziers-Vias Airport,43.32350158691410,3.3538999557495100,56,EU,FR,FR-OCC,Béziers/Vias,yes,LFMU,BZR,,,https://en.wikipedia.org/wiki/B%C3%A9ziers-Agde-Vias_Airport,
4163,LFMV,medium_airport,Avignon-Caumont Airport,43.90729904174810,4.901830196380620,124,EU,FR,FR-PAC,Avignon/Caumont,yes,LFMV,AVN,,,https://en.wikipedia.org/wiki/Avignon_-_Caumont_Airport,
4169,LFOB,medium_airport,Paris-Beauvais Airport,49.454399,2.11278,359,EU,FR,FR-HDF,Tillé,yes,LFOB,BVA,,https://www.aeroportparisbeauvais.com/,https://en.wikipedia.org/wiki/Paris_Beauvais_Till%C3%A9_Airport,Beauvais-Tillé
4176,LFOK,medium_airport,Châlons-Vatry Airport,48.77333,4.20611,587,EU,FR,FR-GES,Bussy-Lettrée,yes,LFOK,XCR,,https://www.parisvatry.com/,https://en.wikipedia.org/wiki/Ch%C3%A2lons_Vatry_Airport,"Paris-Châlons, Paris-Vatry, Paris-Vatry (Disney), Vatry Europort"
4179,LFOT,medium_airport,Tours-Val-de-Loire Airport,47.4322013855,0.727605998516,357,EU,FR,FR-CVL,Tours/Val de Loire (Loire Valley),yes,LFOT,TUF,,http://www.tours.aeroport.fr/index_en.php,https://en.wikipedia.org/wiki/Tours_Loire_Valley_Airport,
4185,LFPG,large_airport,Charles de Gaulle International Airport,49.012798,2.55,392,EU,FR,FR-IDF,Paris,yes,LFPG,CDG,,http://www.aeroportsdeparis.fr/,https://en.wikipedia.org/wiki/Charles_de_Gaulle_Airport,"PAR, Aéroport Roissy-Charles de Gaulle, Roissy Airport"
4189,LFPO,large_airport,Paris-Orly Airport,48.72333,2.37944,291,EU,FR,FR-IDF,Paris,yes,LFPO,ORY,,https://www.parisaeroport.fr/orly,https://en.wikipedia.org/wiki/Orly_Airport,
4202,LFQQ,medium_airport,Lille Airport,50.563332,3.086886,157,EU,FR,FR-HDF,Lesquin,yes,LFQQ,LIL,,https://www.lille.aeroport.fr/home/,https://en.wikipedia.org/wiki/Lille_Airport,Aéroport de Lille. Lille-Lesquin Airport
4206,LFRB,medium_airport,Brest Bretagne Airport,48.447899,-4.41854,325,EU,FR,FR-BRE,Brest/Guipavas,yes,LFRB,BES,,https://www.brest.aeroport.bzh,https://en.wikipedia.org/wiki/Brest_Bretagne_Airport,
4208,LFRD,medium_airport,Dinard-Pleurtuit-Saint-Malo Airport,48.58769989013670,-2.0799601078033400,219,EU,FR,FR-BRE,Dinard/Pleurtuit/Saint-Malo,yes,LFRD,DNR,,,https://en.wikipedia.org/wiki/Dinard_-_Pleurtuit_-_Saint-Malo_Airport,
4211,LFRG,medium_airport,Deauville-Saint-Gatien Airport,49.365299,0.154306,479,EU,FR,FR-NOR,Deauville,yes,LFRG,DOL,,https://www.deauville.aeroport.fr/,https://en.wikipedia.org/wiki/Deauville_-_Saint-Gatien_Airport,
4212,LFRH,medium_airport,Lorient South Brittany (Bretagne Sud) Airport,47.76060104370120,-3.440000057220460,160,EU,FR,FR-BRE,Lorient/Lann/Bihoué,yes,LFRH,LRT,,,https://en.wikipedia.org/wiki/Lorient_South_Brittany_Airport,
4215,LFRK,medium_airport,Caen-Carpiquet Airport,49.173302,-0.45,256,EU,FR,FR-NOR,Caen/Carpiquet,yes,LFRK,CFR,,https://www.caen.aeroport.fr/,https://en.wikipedia.org/wiki/Caen_-_Carpiquet_Airport,
4218,LFRN,medium_airport,Rennes-Saint-Jacques Airport,48.0695,-1.73479,124,EU,FR,FR-BRE,Rennes/Saint-Jacques,yes,LFRN,RNS,,http://www.rennes.aeroport.fr/,https://en.wikipedia.org/wiki/Rennes_-_Saint-Jacques_Airport,
4221,LFRS,medium_airport,Nantes Atlantique Airport,47.153198,-1.61073,90,EU,FR,FR-PDL,Nantes,yes,LFRS,NTE,,https://www.nantes.aeroport.fr/en,https://en.wikipedia.org/wiki/Nantes_Atlantique_Airport,
4224,LFRV,medium_airport,Vannes-Meucon Airport,47.723301,-2.71856,446,EU,FR,FR-BRE,Vannes/Meucon,yes,LFRV,VNE,,http://www.vannes.aeroport.fr/,https://en.wikipedia.org/wiki/Meucon_Airport,
4225,LFRZ,medium_airport,Saint-Nazaire-Montoir Airport,47.31142,-2.152634,13,EU,FR,FR-PDL,Saint-Nazaire/Montoir,yes,LFRZ,SNR,,,https://en.wikipedia.org/wiki/Saint-Nazaire_Montoir_Airport,
4226,LFSB,large_airport,EuroAirport Basel-Mulhouse-Freiburg,47.60068,7.521117,885,EU,FR,FR-GES,Saint-Louis,yes,LFSB,BSL,,http://www.euroairport.com/,https://en.wikipedia.org/wiki/EuroAirport_Basel-Mulhouse-Freiburg,"MLH, EAP, LSZM, Bâle, Basle"
4228,LFSD,medium_airport,Dijon-Bourgogne Airport,47.268902,5.09,726,EU,FR,FR-BFC,Ouges,yes,LFSD,DIJ,,http://www.aeroport.dijon.cci.fr/,https://fr.wikipedia.org/wiki/A%C3%A9roport_de_Dijon-Bourgogne,BA 102
29001,LFSL,medium_airport,Brive-Souillac,45.039722,1.485556,1016,EU,FR,FR-NAQ,Brive la Gaillarde,yes,LFSL,BVE,,http://www.aeroport-brive-vallee-dordogne.fr,https://fr.wikipedia.org/wiki/Aéroport_de_Brive-Souillac,LFSL
4238,LFST,medium_airport,Strasbourg Airport,48.538299560546900,7.628230094909670,505,EU,FR,FR-GES,Strasbourg,yes,LFST,SXB,,http://www.strasbourg.aeroport.fr/E/index.php,https://en.wikipedia.org/wiki/Strasbourg_Airport,BA 124
4241,LFTH,medium_airport,Toulon-Hyères Airport,43.0973014832,6.14602994919,7,EU,FR,FR-PAC,Toulon/Hyères/Le Palyvestre,yes,LFTH,TLN,,http://toulon-hyeres.aeroport.fr/,https://en.wikipedia.org/wiki/Toulon-Hy%C3%A8res_Airport,
4242,LFTW,medium_airport,Nîmes-Arles-Camargue Airport,43.75740051269530,4.4163498878479,309,EU,FR,FR-OCC,Nîmes/Garons,yes,LFTW,FNI,,,https://en.wikipedia.org/wiki/N%C3%AEmes-Arles-Camargue_Airport,
4243,LFTZ,small_airport,La Môle Airport,43.205399,6.482,59,EU,FR,FR-PAC,La Môle,yes,LFTZ,LTT,,https://www.sainttropez.aeroport.fr/en,https://en.wikipedia.org/wiki/La_M%C3%B4le_%E2%80%93_Saint-Tropez_Airport,
4250,LGAL,medium_airport,Alexandroupoli Democritus Airport,40.8559,25.956301,24,EU,GR,GR-A,Alexandroupolis,yes,LGAL,AXD,,,https://en.wikipedia.org/wiki/Alexandroupoli_Airport,
4251,LGAV,large_airport,Athens Eleftherios Venizelos International Airport,37.936401,23.9445,308,EU,GR,GR-I,Spata-Artemida,yes,LGAV,ATH,,http://www.aia.gr,https://en.wikipedia.org/wiki/Athens_International_Airport,
4253,LGBL,medium_airport,Nea Anchialos National Airport,39.219601,22.7943,83,EU,GR,GR-E,Nea Anchialos,yes,LGBL,VOL,,,https://en.wikipedia.org/wiki/Nea_Anchialos_National_Airport,"Volos Central Greece Airport, Volos Nea Anchialos Airport of Central Greece"
4255,LGHI,medium_airport,Chios Island National Airport,38.34320068359380,26.140600204467800,15,EU,GR,GR-K,Chios Island,yes,LGHI,JKH,,http://www.hcaa-eleng.gr/chios.htm,https://en.wikipedia.org/wiki/Chios_Island_National_Airport,
4256,LGIK,small_airport,Ikaria Airport,37.6827011108,26.3470993042,79,EU,GR,GR-K,Ikaria Island,yes,LGIK,JIK,,,https://en.wikipedia.org/wiki/Ikaria_Island_National_Airport,
4257,LGIO,medium_airport,Ioannina King Pyrrhus National Airport,39.6964,20.8225,1558,EU,GR,GR-D,Ioannina,yes,LGIO,IOA,,,https://en.wikipedia.org/wiki/Ioannina_National_Airport,
4258,LGIR,large_airport,Heraklion International Nikos Kazantzakis Airport,35.339699,25.1803,115,EU,GR,GR-M,Heraklion,yes,LGIR,HER,,,https://en.wikipedia.org/wiki/Heraklion_International_Airport%2C_%22Nikos_Kazantzakis%22,Crete Island
4259,LGKA,small_airport,Kastoria National Airport Aristotle,40.446301,21.2822,2167,EU,GR,GR-C,Argos Orestiko,yes,LGKA,KSO,,,https://en.wikipedia.org/wiki/Kastoria_National_Airport,Aristotelis Airport
4260,LGKC,small_airport,Kithira Airport,36.2742996216,23.0170001984,1045,EU,GR,GR-I,Kithira Island,yes,LGKC,KIT,,,https://en.wikipedia.org/wiki/Kithira_Island_National_Airport,
4261,LGKF,medium_airport,Kefallinia Airport,38.12009811401370,20.500499725341800,59,EU,GR,GR-F,Kefallinia Island,yes,LGKF,EFL,,,https://en.wikipedia.org/wiki/Kefalonia_Island_International_Airport,
4262,LGKL,medium_airport,Kalamata Airport,37.06829833984380,22.02549934387210,26,EU,GR,GR-J,Kalamata,yes,LGKL,KLX,,,https://en.wikipedia.org/wiki/Kalamata_International_Airport,
4264,LGKO,medium_airport,Kos Airport,36.79330062866210,27.091699600219700,412,EU,GR,GR-L,Kos Island,yes,LGKO,KGS,,,https://en.wikipedia.org/wiki/Kos_Island_International_Airport,
4265,LGKP,medium_airport,Karpathos Airport,35.421398,27.146,66,EU,GR,GR-L,Karpathos Island,yes,LGKP,AOK,,,https://en.wikipedia.org/wiki/Karpathos_Island_National_Airport,
4266,LGKR,medium_airport,Corfu Ioannis Kapodistrias International Airport,39.601898,19.911699,6,EU,GR,GR-F,Kerkyra (Corfu),yes,LGKR,CFU,,,https://en.wikipedia.org/wiki/Corfu_International_Airport%2C_%26quot%3BIoannis_Kapodistrias%26quot%3B,Corfu
4267,LGKS,small_airport,Kasos Airport,35.4213981628,26.909999847400000,35,EU,GR,GR-L,Kasos Island,yes,LGKS,KSJ,,,https://en.wikipedia.org/wiki/Kassos_Island_Public_Airport,
4268,LGKV,medium_airport,Kavala Alexander the Great International Airport,40.9133,24.6192,18,EU,GR,GR-A,Kavala,yes,LGKV,KVA,,,https://en.wikipedia.org/wiki/Kavala_International_Airport,Megas Alexandros
30004,LGKY,small_airport,Kalymnos Airport,36.9632987976,26.9405994415,771,EU,GR,GR-L,Kalymnos Island,yes,LGKY,JKL,,,https://en.wikipedia.org/wiki/Kalymnos_Island_National_Airport,"Kalimnos, Κάλυμνος"
4269,LGKZ,medium_airport,Kozani National Airport Filippos,40.286098,21.840799,2059,EU,GR,GR-C,Kozani,yes,LGKZ,KZI,,,https://en.wikipedia.org/wiki/Kozani_National_Airport,
4270,LGLE,small_airport,Leros Airport,37.184898,26.800301,39,EU,GR,GR-L,Leros Island,yes,LGLE,LRS,,,https://en.wikipedia.org/wiki/Leros_Municipal_Airport,
4271,LGLM,small_airport,Limnos Airport,39.917098999,25.236299514800000,14,EU,GR,GR-K,Limnos Island,yes,LGLM,LXS,,,https://en.wikipedia.org/wiki/Lemnos_International_Airport,
4274,LGMK,medium_airport,Mykonos Island National Airport,37.435101,25.348101,405,EU,GR,GR-L,Mykonos,yes,LGMK,JMK,,,https://en.wikipedia.org/wiki/Mykonos_Island_National_Airport,
30139,LGML,small_airport,Milos Airport,36.696899,24.4769,10,EU,GR,GR-L,Milos Island,yes,LGML,MLO,,,https://en.wikipedia.org/wiki/Milos_Island_National_Airport,
4275,LGMT,medium_airport,Mytilene International Airport,39.057272,26.598887,60,EU,GR,GR-K,Mytilene,yes,LGMT,MJT,,,https://en.wikipedia.org/wiki/Mytilene_International_Airport,
30182,LGNX,small_airport,Naxos Island National Airport,37.0811,25.368099,10,EU,GR,GR-L,Naxos,yes,LGNX,JNX,,,https://en.wikipedia.org/wiki/Naxos_Island_National_Airport,Apollon
30243,LGPA,small_airport,Paros National Airport,37.020495,25.113195,131,EU,GR,GR-L,Paros,yes,LGPA,PAS,,,https://en.wikipedia.org/wiki/New_Paros_Airport,New Paros Airport
4276,LGPL,small_airport,Astypalaia Airport,36.5798988342,26.3757991791,165,EU,GR,GR-L,Astypalaia Island,yes,LGPL,JTY,,,https://en.wikipedia.org/wiki/Astypalaia_Island_National_Airport,
4277,LGPZ,medium_airport,Aktion National Airport,38.925499,20.765301,11,EU,GR,GR-D,Aktio-Vonitsa,yes,LGPZ,PVK,,,https://en.wikipedia.org/wiki/Aktion_National_Airport,"Preveza, Lefkada, Πρέβεζα, Λευκάδα"
4279,LGRP,medium_airport,Diagoras Airport,36.405399,28.086201,17,EU,GR,GR-L,Rhodes,yes,LGRP,RHO,,,https://en.wikipedia.org/wiki/Rhodes_International_Airport%2C_%26quot%3BDiagoras%26quot%3B,
4280,LGRX,medium_airport,Patras Araxos Agamemnon Airport,38.1511,21.4256,46,EU,GR,GR-G,Patras,yes,LGRX,GPA,,http://www.araxos-airport.gr/,https://en.wikipedia.org/wiki/Araxos_Airport,
4281,LGSA,medium_airport,Chania International Airport,35.5317,24.1497,490,EU,GR,GR-M,Souda,yes,LGSA,CHQ,,,https://en.wikipedia.org/wiki/Chania_International_Airport,
4282,LGSK,medium_airport,Skiathos Island National Airport,39.177101,23.5037,54,EU,GR,GR-E,Skiathos,yes,LGSK,JSI,,,https://en.wikipedia.org/wiki/Skiathos_Island_National_Airport,Alexandros Papadiamantis Airport
4283,LGSM,medium_airport,Samos Airport,37.689999,26.911699,19,EU,GR,GR-K,Samos Island,yes,LGSM,SMI,,,https://en.wikipedia.org/wiki/Samos_International_Airport,
4284,LGSO,small_airport,Syros Airport,37.4227981567,24.950899124100000,236,EU,GR,GR-L,Syros Island,yes,LGSO,JSY,,,https://en.wikipedia.org/wiki/Syros_Island_National_Airport,
4286,LGSR,medium_airport,Santorini Airport,36.399200439453100,25.479299545288100,127,EU,GR,GR-L,Santorini Island,yes,LGSR,JTR,,,https://en.wikipedia.org/wiki/Santorini_(Thira)_National_Airport,
4287,LGST,medium_airport,Sitia Airport,35.21609878540040,26.101299285888700,376,EU,GR,GR-M,Crete Island,yes,LGST,JSH,,,https://en.wikipedia.org/wiki/Sitia_Public_Airport,
4289,LGSY,small_airport,Skiros Airport,38.9676017761,24.4871997833,44,EU,GR,GR-H,Skiros Island,yes,LGSY,SKU,,,https://en.wikipedia.org/wiki/Skyros_Island_National_Airport,
4293,LGTS,large_airport,Thessaloniki Macedonia International Airport,40.51928,22.970009,22,EU,GR,GR-B,Thessaloniki,yes,LGTS,SKG,,,https://en.wikipedia.org/wiki/Thessaloniki_International_Airport%2C_%22Macedonia%22,Makedonia. Macedonia. Salonica
4295,LGZA,medium_airport,Zakynthos International Airport Dionysios Solomos,37.7509,20.8843,12,EU,GR,GR-F,Zakynthos,yes,LGZA,ZTH,,https://www.zth-airport.gr,https://en.wikipedia.org/wiki/Zakynthos_International_Airport,Zakinthos
4296,LHBP,large_airport,Budapest Liszt Ferenc International Airport,47.43018,19.262393,495,EU,HU,HU-BU,Budapest,yes,LHBP,BUD,,http://www.bud.hu/english,https://en.wikipedia.org/wiki/Budapest_Ferenc_Liszt_International_Airport,"Ferihegyi nemzetközi repülőtér, Budapest Liszt Ferenc international Airport"
4297,LHDC,medium_airport,Debrecen International Airport,47.488899,21.615299,359,EU,HU,HU-HB,Debrecen,yes,LHDC,DEB,,http://www.airportdebrecen.hu/,https://en.wikipedia.org/wiki/Debrecen_International_Airport,Debreceni nemzetközi repülőtér
4305,LHSM,medium_airport,Hévíz–Balaton Airport,46.686391,17.159084,408,EU,HU,HU-ZA,Sármellék,yes,LHSM,SOB,,http://www.flybalaton.com/?null&lang=en,https://en.wikipedia.org/wiki/S%C3%A1rmell%C3%A9k_International_Airport,"Sármellék International, FlyBatalon Airport, Batalon Airport, Sármellék Nemzetközi Repülőtér"
4309,LIBC,medium_airport,Crotone Airport,38.9972,17.0802,522,EU,IT,IT-78,Crotone,yes,LIBC,CRV,KR01,http://www.aeroporto.kr.it/cartaservizi_eng.asp,https://en.wikipedia.org/wiki/Crotone_Airport,Sant'Anna Airport
4310,LIBD,large_airport,Bari Karol Wojtyła Airport,41.138901,16.760599,193,EU,IT,IT-75,Bari,yes,LIBD,BRI,BA02,http://www.seap-puglia.it/default.asp?idlingua=2&idcontenuto=25,https://en.wikipedia.org/wiki/Bari_Karol_Wojty%C5%82a_Airport,"Bari ""Karol Wojtyla"" International Airport, Palese Macchie Airport, Palese Airport"
4311,LIBF,medium_airport,"Foggia ""Gino Lisa"" Airport",41.432899,15.535,265,EU,IT,IT-75,Foggia,yes,LIBF,FOG,FG05,,https://en.wikipedia.org/wiki/Foggia_%22Gino_Lisa%22_Airport,Foggia Airport
4314,LIBP,medium_airport,Abruzzo Airport,42.431702,14.1811,48,EU,IT,IT-65,Pescara,yes,LIBP,PSR,PE01,http://www.abruzzo-airport.it/eng/index.php,https://en.wikipedia.org/wiki/Abruzzo_Airport,"Pescara, Abruzzo Pasquale Liberi International"
4315,LIBR,large_airport,Brindisi Airport,40.6576,17.947001,47,EU,IT,IT-75,Brindisi,yes,LIBR,BDS,BR03,http://www.seap-puglia.it/default.asp?idlingua=2&idcontenuto=29,https://en.wikipedia.org/wiki/Brindisi_Airport,"Brindisi Papola Casale Airport, Brindisi Salento Airport, Brindisi Casale Antonio Papolo Airport, Salento Airport"
4317,LICA,medium_airport,Lamezia Terme Airport,38.905399,16.2423,39,EU,IT,IT-78,Lamezia Terme (CZ),yes,LICA,SUF,CZ02,,https://en.wikipedia.org/wiki/Lamezia_Terme_International_Airport,
298716,LICB,medium_airport,Comiso Airport,36.99583,14.60889,756,EU,IT,IT-82,Comiso,yes,LICB,CIY,RG06,http://www.aeroportodicomiso.it/,https://en.wikipedia.org/wiki/Comiso_Airport,"Vincenzo Magliocco Airport, Aeroporto di Comiso"
4318,LICC,large_airport,Catania-Fontanarossa Airport,37.466801,15.0664,39,EU,IT,IT-82,Catania,yes,LICC,CTA,CT03,http://www.aeroporto.catania.it/,https://en.wikipedia.org/wiki/Catania-Fontanarossa_Airport,"Lanza Di Trabie, Catania-Fontanarossa Vincenzo Bellini"
4319,LICD,medium_airport,Lampedusa Airport,35.497898,12.6181,70,EU,IT,IT-82,Lampedusa,yes,LICD,LMP,AG01,,https://en.wikipedia.org/wiki/Lampedusa_Airport,
4320,LICG,medium_airport,Pantelleria Airport,36.816502,11.9689,628,EU,IT,IT-82,Pantelleria (TP),yes,LICG,PNL,TP02,,https://en.wikipedia.org/wiki/Pantelleria_Airport,I D'Amico
4321,LICJ,large_airport,Falcone–Borsellino Airport,38.175999,13.091,65,EU,IT,IT-82,Palermo,yes,LICJ,PMO,PA03,http://www.gesap.it/index.php,https://en.wikipedia.org/wiki/Falcone%E2%80%93Borsellino_Airport,"Palermo Airport, Punta Raisi Airport"
4323,LICR,medium_airport,Reggio Calabria Airport,38.071201,15.6516,96,EU,IT,IT-78,Reggio Calabria,yes,LICR,REG,RC01,,https://en.wikipedia.org/wiki/Reggio_Calabria_Airport,Tito Minniti
4324,LICT,medium_airport,Vincenzo Florio Airport Trapani-Birgi,37.9114,12.488,25,EU,IT,IT-82,Trapani (TP),yes,LICT,TPS,TP01,,https://en.wikipedia.org/wiki/Vincenzo_Florio_Airport_Trapani%E2%80%93Birgi,"Vincenzo Florio Airport, Trapani Airport, Aeroporto Vincenzo Florio di Trapani-Birgi"
4330,LIEA,medium_airport,Alghero-Fertilia Airport,40.632099,8.29077,87,EU,IT,IT-88,Alghero,yes,LIEA,AHO,SS02,http://www.aeroportodialghero.it/home_en.asp,https://en.wikipedia.org/wiki/Alghero-Fertilia_Airport,"Alghero Airport, Sardinia, Alghero - Riviera del Corallo Airport"
4332,LIEE,large_airport,Cagliari Elmas Airport,39.251499,9.05428,13,EU,IT,IT-88,Cagliari,yes,LIEE,CAG,CA07,http://www.cagliariairport.it/en/,https://en.wikipedia.org/wiki/Cagliari_Elmas_Airport,"Cagliari Airport,Elmas"
4333,LIEO,medium_airport,Olbia Costa Smeralda Airport,40.898701,9.51763,37,EU,IT,IT-88,Olbia (SS),yes,LIEO,OLB,SS03,,https://en.wikipedia.org/wiki/Olbia_Costa_Smeralda_Airport,
4340,LIMC,large_airport,Milan Malpensa International Airport,45.6306,8.72811,768,EU,IT,IT-25,Ferno (VA),yes,LIMC,MXP,MI12,http://www.sea-aeroportimilano.it/en/malpensa/index.phtml,https://en.wikipedia.org/wiki/Malpensa_Airport,MIL
4341,LIME,large_airport,Milan Bergamo Airport / Antonio Locatelli Air Base,45.670725,9.709223,782,EU,IT,IT-25,Orio al Serio (BG),yes,LIME,BGY,BG01,http://www.sacbo.it/,https://en.wikipedia.org/wiki/Orio_al_Serio_International_Airport,"Bergamo Orio al Serio Airport, Il Caravaggio International Airport"
4342,LIMF,large_airport,Turin Airport,45.200802,7.64963,989,EU,IT,IT-21,Caselle Torinese (TO),yes,LIMF,TRN,TO11,http://www.aeroportoditorino.it/,https://en.wikipedia.org/wiki/Turin_International_Airport,"Torino-Caselle Airport, Sandro Pertini Airport, Turin-Caselle Airport"
4344,LIMJ,medium_airport,Genoa Cristoforo Colombo Airport,44.412039,8.840732,13,EU,IT,IT-42,Genova (GE),yes,LIMJ,GOA,GE01,http://www.aeroportodigenova.com/en/home/index.php,https://en.wikipedia.org/wiki/Genoa_Cristoforo_Colombo_Airport,"Genova Sestri, Sestri Cristoforo Colombo Airport, Cristoforo Colombo Airport"
4345,LIML,medium_airport,Milano Linate Airport,45.445099,9.27674,353,EU,IT,IT-25,Segrate (MI),yes,LIML,LIN,MI11,http://www.sea-aeroportimilano.it/en/,https://en.wikipedia.org/wiki/Linate_Airport,E Forlanini
4347,LIMP,medium_airport,Parma Airport,44.826351,10.29705,161,EU,IT,IT-45,Parma (PR),yes,LIMP,PMF,PR03,,https://en.wikipedia.org/wiki/Parma_Airport,
4350,LIMZ,medium_airport,Cuneo International Airport,44.547001,7.62322,1267,EU,IT,IT-21,Levaldigi (CN),yes,LIMZ,CUF,CN03,http://www.aeroporto.cuneo.it/,https://en.wikipedia.org/wiki/Cuneo_International_Airport,"Cuneo Levaldigi Airport, Turin Cuneo Airport"
4352,LIPB,medium_airport,Bolzano Airport,46.460201,11.3264,789,EU,IT,IT-32,Bolzano (BZ),yes,LIPB,BZO,BZ01,http://www.abd-airport.it/en/home.htm,https://en.wikipedia.org/wiki/Bolzano_Airport,G Sabelli
4354,LIPE,large_airport,Bologna Guglielmo Marconi Airport,44.5354,11.2887,123,EU,IT,IT-45,Bologna,yes,LIPE,BLQ,BO08,http://www.bologna-airport.it/?LN=UK,https://en.wikipedia.org/wiki/Bologna_Airport,"Guglielmo Marconi Airport, Borgo Panigale Airport"
4355,LIPH,medium_airport,Treviso Antonio Canova Airport,45.648399,12.1944,59,EU,IT,IT-34,Treviso (TV),yes,LIPH,TSF,TV01,http://www.trevisoairport.it/tsf/index.jsp?_requestid=677517&language=en,https://en.wikipedia.org/wiki/Treviso_Airport,"Venice-Treviso, Treviso-Sant'Angelo"
4357,LIPK,medium_airport,Forlì Airport,44.194801,12.0701,97,EU,IT,IT-45,Forlì (FC),yes,LIPK,FRL,FC03,,https://en.wikipedia.org/wiki/Forl%C3%AC_Airport,"L Ridolfi, Ronco di Forlì"
4360,LIPO,medium_airport,Brescia Gabriele d'Annunzio Airport,45.428902,10.3306,355,EU,IT,IT-25,Montichiari (BS),yes,LIPO,VBS,BS04,http://www.aeroportobrescia.it/en/business_t6/,https://en.wikipedia.org/wiki/Brescia_Airport,Brescia-Montichiari
4361,LIPQ,medium_airport,Trieste–Friuli Venezia Giulia Airport,45.827499,13.4722,39,EU,IT,IT-36,Ronchi dei Legionari (GO),yes,LIPQ,TRS,GO02,http://www.aeroporto.fvg.it/,https://en.wikipedia.org/wiki/Trieste_%E2%80%93_Friuli_Venezia_Giulia_Airport,"Ronchi Dei Legionari Airport, Trieste-Ronchi dei Legionari Airport"
4362,LIPR,medium_airport,Federico Fellini International Airport,44.020302,12.6117,40,EU,IT,IT-45,Rimini,yes,LIPR,RMI,RN01,http://www.riminiairport.com/english/,https://en.wikipedia.org/wiki/Federico_Fellini_International_Airport,"Rimini Miramare Airport, Rimini San Marino International Airport"
4366,LIPX,large_airport,Verona Villafranca Valerio Catullo Airport,45.394955,10.887303,239,EU,IT,IT-34,Caselle (VR),yes,LIPX,VRN,VR10,http://www.aeroportoverona.it/,https://en.wikipedia.org/wiki/Verona_Airport,"Valerio Catullo, Villafranca International Airport, Valerio Catullo Airport, Villafranca Airport"
4367,LIPY,medium_airport,Marche Airport,43.616299,13.3623,49,EU,IT,IT-57,Ancona,yes,LIPY,AOI,AN01,http://www.aeroportomarche.com/index.php?lang=english,https://en.wikipedia.org/wiki/Marche_Airport,"Ancona Falconara Airport, Falconara, Raffaello Sanzio Airport"
4368,LIPZ,large_airport,Venice Marco Polo Airport,45.505299,12.3519,7,EU,IT,IT-34,Venezia (VE),yes,LIPZ,VCE,VE05,http://www.veniceairport.com/core/index.jsp?_requestid=37300&language=en,https://en.wikipedia.org/wiki/Venice_Marco_Polo_Airport,"Venezia-Tessera, Venice-Tessera"
4370,LIRA,medium_airport,Ciampino–G. B. Pastine International Airport,41.7994,12.5949,427,EU,IT,IT-62,Rome,yes,LIRA,CIA,RM12,,https://en.wikipedia.org/wiki/Ciampino%E2%80%93G._B._Pastine_International_Airport,"ROM, Giovan Battista Pastine Airport"
4372,LIRF,large_airport,Rome–Fiumicino Leonardo da Vinci International Airport,41.804532,12.251998,13,EU,IT,IT-62,Rome,yes,LIRF,FCO,RM11,http://www.adr.it/portal/portal/adr/Fiumicino/Leonardo_da_vinci/Header_Window?action=2,https://en.wikipedia.org/wiki/Leonardo_da_Vinci%E2%80%93Fiumicino_Airport,"ROM, Rome Fiumicino Airport, Fiumicino Airport"
4375,LIRJ,medium_airport,Marina Di Campo Airport,42.7603,10.2394,31,EU,IT,IT-52,Marina  Di Campo,yes,LIRJ,EBA,LI04,,https://en.wikipedia.org/wiki/Marina_di_Campo_Airport,
4378,LIRN,large_airport,Naples International Airport,40.886002,14.2908,294,EU,IT,IT-72,Napoli,yes,LIRN,NAP,NA01,http://www.portal.gesac.it/,https://en.wikipedia.org/wiki/Naples_International_Airport,"Capodichino Airport, Aeroporto Internazionale di Napoli-Capodichino Ugo Niutta, Ariopuorto 'nternazziunale 'e Napule-Capodichino Ugo Niutta"
4379,LIRP,large_airport,Pisa International Airport,43.683899,10.3927,6,EU,IT,IT-52,Pisa,yes,LIRP,PSA,PI05,http://www.pisa-airport.com/,https://en.wikipedia.org/wiki/Pisa_International_Airport,"Galileo Galilei Airport, San Giusto Airport"
4380,LIRQ,medium_airport,Peretola Airport,43.810001,11.2051,142,EU,IT,IT-52,Firenze,yes,LIRQ,FLR,FI04,http://www.aeroporto.firenze.it/,"https://en.wikipedia.org/wiki/Florence_Airport,_Peretola","Florence, Firenze, Amerigo Vespucci Airport"
4384,LIRZ,medium_airport,Perugia San Francesco d'Assisi – Umbria International Airport,43.095901,12.5132,697,EU,IT,IT-55,Perugia,yes,LIRZ,PEG,PG10,http://www.airport.umbria.it/,https://en.wikipedia.org/wiki/San_Egidio_Airport,"Perugia San Francesco d'Assisi, Perugia Sant'Egidio Airport, Umbria International Airport"
4386,LJLJ,large_airport,Ljubljana Jože Pučnik Airport,46.223701,14.4576,1273,EU,SI,SI-012,Zgornji Brnik,yes,LJLJ,LJU,,http://www.lju-airport.si/,https://en.wikipedia.org/wiki/Ljubljana_Jo%C5%BEe_Pu%C4%8Dnik_Airport,"Ljubljana, Kranj"
4399,LKKV,medium_airport,Karlovy Vary Airport,50.202999,12.915,1989,EU,CZ,CZ-KA,Karlovy Vary,yes,LKKV,KLV,,http://www.airport-k-vary.cz/indexEN.php,https://en.wikipedia.org/wiki/Karlovy_Vary_Airport,Karlovy Vary International
4402,LKMT,medium_airport,Ostrava Leos Janáček Airport,49.696301,18.111099,844,EU,CZ,CZ-MO,Mošnov,yes,LKMT,OSR,,http://www.airport-ostrava.cz/en/,https://en.wikipedia.org/wiki/Ostrava_Leos_Janacek_Airport,Ostrava-Mošnov International Airport
4405,LKPD,medium_airport,Pardubice Airport,50.01340103149410,15.73859977722170,741,EU,CZ,CZ-PA,Pardubice,yes,LKPD,PED,,http://www.airport-pardubice.cz/?lang=en,https://en.wikipedia.org/wiki/Pardubice_Airport,Letiště Pardubice
4408,LKPR,large_airport,Václav Havel Airport Prague,50.100874,14.259911,1247,EU,CZ,CZ-PR,Prague,yes,LKPR,PRG,,http://www.prg.aero,https://en.wikipedia.org/wiki/Václav_Havel_Airport_Prague,"Letiště Praha-Ruzyně, Ruzyně International Airport, Letiště Václava Havla Praha"
4409,LKTB,medium_airport,Brno-Tuřany Airport,49.15129852294920,16.694400787353500,778,EU,CZ,CZ-JM,Brno,yes,LKTB,BRQ,,http://www.airport-brno.cz/index.php?id=0&lang=en,https://en.wikipedia.org/wiki/Brno-Tu%C5%99any_Airport,
4427,LMML,large_airport,Malta International Airport,35.857498,14.4775,300,EU,MT,MT-25,Valletta,yes,LMML,MLA,,http://www.maltairport.com/en/home.htm,https://en.wikipedia.org/wiki/Malta_International_Airport,"Luqa Airport,Valletta,Gudja,RAF Luqa"
4430,LOWG,medium_airport,Graz Airport,46.9911,15.4396,1115,EU,AT,AT-6,Feldkirchen bei Graz,yes,LOWG,GRZ,,http://www.flughafen-graz.at/,https://en.wikipedia.org/wiki/Graz_Airport,"Thalerhof Airport, Fliegerhorst Nittner, Nittner Air Base, Christophorus 12"
4431,LOWI,medium_airport,Innsbruck Airport,47.260201,11.344,1907,EU,AT,AT-7,Innsbruck,yes,LOWI,INN,,http://www.innsbruck-airport.com/,https://en.wikipedia.org/wiki/Innsbruck_Airport,Kranebitten Airport
4435,LOWK,medium_airport,Klagenfurt Airport,46.642502,14.3377,1472,EU,AT,AT-2,Klagenfurt am Wörthersee,yes,LOWK,KLU,,http://www.klagenfurt-airport.com/,https://en.wikipedia.org/wiki/Klagenfurt_Airport,"Kärnten Airport, Christophorus 11"
4432,LOWL,medium_airport,Linz-Hörsching Airport / Vogler Air Base,48.2332,14.1875,980,EU,AT,AT-4,Linz,yes,LOWL,LNZ,,http://www.flughafen-linz.at/,https://en.wikipedia.org/wiki/Linz_Airport,"Blue Danube Airport, Vogler Air Base, Fliegerhorst Vogler, Christophorus 10"
4433,LOWS,medium_airport,Salzburg Airport,47.793301,13.0043,1411,EU,AT,AT-5,Salzburg,yes,LOWS,SZG,,http://www.salzburg-airport.com/,https://en.wikipedia.org/wiki/Salzburg_Airport,Christophorus 6
4434,LOWW,large_airport,Vienna International Airport,48.110298,16.5697,600,EU,AT,AT-9,Vienna,yes,LOWW,VIE,,http://www.viennaairport.com/en/,https://en.wikipedia.org/wiki/Vienna_International_Airport,
4439,LPAZ,medium_airport,Santa Maria Airport,36.97140121459960,-25.17060089111330,308,EU,PT,PT-20,Vila do Porto,yes,LPAZ,SMA,,,https://en.wikipedia.org/wiki/Santa_Maria_Airport,
4440,LPBG,medium_airport,Bragança Airport,41.8578,-6.70713,2241,EU,PT,PT-04,Bragança,yes,LPBG,BGC,,,https://en.wikipedia.org/wiki/Bragan%C3%A7a_Airport,
29487,LPCR,small_airport,Corvo Airport,39.671501,-31.1136,,EU,PT,PT-20,Corvo,yes,LPCR,CVU,,,https://en.wikipedia.org/wiki/Corvo_Airport,
4444,LPCS,medium_airport,Cascais Airport,38.724998,-9.35523,325,EU,PT,PT-11,Cascais,yes,LPCS,CAT,,http://aerodromo-cascais.pt/?lang=en,https://en.wikipedia.org/wiki/Cascais_Aerodrome,Tires
4447,LPFL,medium_airport,Flores Airport,39.455299377441400,-31.131399154663100,112,EU,PT,PT-20,Santa Cruz das Flores,yes,LPFL,FLW,,,https://en.wikipedia.org/wiki/Flores_Airport,
4448,LPFR,large_airport,Faro Airport,37.0144004822,-7.96590995789,24,EU,PT,PT-08,Faro,yes,LPFR,FAO,,http://www.ana.pt/en-US/Aeroportos/algarve/Faro/Pages/HomeFaro.aspx,https://en.wikipedia.org/wiki/Faro_Airport_(Portugal),
4449,LPGR,medium_airport,Graciosa Airport,39.092201232910200,-28.029800415039100,86,EU,PT,PT-20,Santa Cruz da Graciosa,yes,LPGR,GRW,,,https://en.wikipedia.org/wiki/Graciosa_Airport,
4450,LPHR,medium_airport,Horta Airport,38.519901275634800,-28.715900421142600,118,EU,PT,PT-20,Horta,yes,LPHR,HOR,,,https://en.wikipedia.org/wiki/Horta_Airport,
4451,LPLA,medium_airport,Lajes Airport,38.761799,-27.090799,180,EU,PT,PT-20,Praia da Vitória,yes,LPLA,TER,,http://aerogarelajes.azores.gov.pt,https://en.wikipedia.org/wiki/Lajes_Field,Terceira Island
4452,LPMA,large_airport,Madeira International Airport Cristiano Ronaldo,32.697899,-16.7745,192,EU,PT,PT-30,Funchal,yes,LPMA,FNC,,http://www.ana.pt/en-US/Aeroportos/Madeira/Funchal/Pages/default.aspx,https://en.wikipedia.org/wiki/Madeira_Airport,"Madeira, Funchal"
4456,LPPD,large_airport,João Paulo II Airport,37.7411994934,-25.6979007721,259,EU,PT,PT-20,Ponta Delgada,yes,LPPD,PDL,,http://www.ana.pt/en-US/Aeroportos/acores/PontaDelgada/Pages/Homepage-PontaDelgada.aspx,https://en.wikipedia.org/wiki/Jo%C3%A3o_Paulo_II_Airport,
4457,LPPI,medium_airport,Pico Airport,38.554298,-28.441299,109,EU,PT,PT-20,Pico Island,yes,LPPI,PIX,,,https://en.wikipedia.org/wiki/Pico_Airport,
4458,LPPM,medium_airport,Portimão Airport,37.1493,-8.58396,5,EU,PT,PT-08,Portimão,yes,LPPM,PRM,,,https://en.wikipedia.org/wiki/Portim%C3%A3o_Airport,
4459,LPPR,large_airport,Francisco de Sá Carneiro Airport,41.2481002808,-8.68138980865,228,EU,PT,PT-13,Porto,yes,LPPR,OPO,,http://www.ana.pt/en-US/Aeroportos/porto/Porto/Pages/Homepage-Porto.aspx,https://en.wikipedia.org/wiki/Francisco_S%C3%A1_Carneiro_Airport,
4460,LPPS,medium_airport,Porto Santo Airport,33.0733985901,-16.3500003815,341,EU,PT,PT-30,Vila Baleira,yes,LPPS,PXO,,http://www.anam.pt/Porto-Santo-411.aspx,https://en.wikipedia.org/wiki/Porto_Santo_Airport,
4461,LPPT,large_airport,Humberto Delgado Airport (Lisbon Portela Airport),38.7813,-9.13592,374,EU,PT,PT-11,Lisbon,yes,LPPT,LIS,,http://www.ana.pt/en-US/Aeroportos/lisboa/Lisboa/Pages/HomeLisboa.aspx,https://en.wikipedia.org/wiki/Lisbon_Portela_Airport,Lisboa
4462,LPSJ,medium_airport,São Jorge Airport,38.665501,-28.1758,311,EU,PT,PT-20,Velas,yes,LPSJ,SJZ,,,https://en.wikipedia.org/wiki/S%C3%A3o_Jorge_Airport,
4465,LPVR,medium_airport,Vila Real Airport,41.2743,-7.72047,1805,EU,PT,PT-17,Vila Real,yes,LPVR,VRL,,,https://en.wikipedia.org/wiki/Vila_Real_Airport,
4466,LPVZ,medium_airport,Aerodromo Goncalves Lobato (Viseu Airport),40.725498,-7.88899,2060,EU,PT,PT-18,Viseu,yes,LPVZ,VSE,,,https://en.wikipedia.org/wiki/Viseu_Airport,
4467,LQBK,medium_airport,Banja Luka International Airport,44.94139862060550,17.297500610351600,400,EU,BA,BA-SRP,Banja Luka,yes,LQBK,BNX,,http://www.banjaluka-airport.com/,https://en.wikipedia.org/wiki/Banja_Luka_International_Airport,Mahovljani Airport
4468,LQMO,medium_airport,Mostar International Airport,43.282901763916000,17.84589958190920,156,EU,BA,BA-BIH,Mostar,yes,LQMO,OMO,,http://www.mostar-airport.ba/,https://en.wikipedia.org/wiki/Mostar_International_Airport,
4469,LQSA,medium_airport,Sarajevo International Airport,43.8246,18.331499,1708,EU,BA,BA-BIH,Sarajevo,yes,LQSA,SJJ,,http://www.sarajevo-airport.ba/,https://en.wikipedia.org/wiki/Sarajevo_International_Airport,
4470,LQTZ,medium_airport,Tuzla International Airport,44.458698,18.7248,784,EU,BA,BA-BIH,Dubrave Gornje,yes,LQTZ,TZL,,http://www.tuzla-airport.ba/,https://en.wikipedia.org/wiki/Tuzla_International_Airport,
4471,LRAR,medium_airport,Arad International Airport,46.17660140991210,21.261999130249000,352,EU,RO,RO-AR,Arad,yes,LRAR,ARW,,,https://en.wikipedia.org/wiki/Arad_International_Airport,
4472,LRBC,medium_airport,Bacău Airport,46.52190017700200,26.91029930114750,607,EU,RO,RO-BC,Bacău,yes,LRBC,BCM,,http://www.bacauairport.ro/,https://en.wikipedia.org/wiki/Bac%C4%83u_International_Airport,"Bacau, RoAF 95th Air Base"
4473,LRBM,medium_airport,Maramureș International Airport,47.660598,23.467252,605,EU,RO,RO-MM,Baia Mare,yes,LRBM,BAY,,https://aimm.eu/,https://en.wikipedia.org/wiki/Maramureș_Airport,
4474,LRBS,medium_airport,Bucharest Băneasa Aurel Vlaicu International Airport,44.503201,26.1021,297,EU,RO,RO-B,Bucharest,yes,LRBS,BBU,,http://www.baneasa-airport.ro/,https://en.wikipedia.org/wiki/Aurel_Vlaicu_International_Airport,"BUH, Băneasa, Aurel Vlaicu International, Bucharest City"
4475,LRCK,medium_airport,Mihail Kogălniceanu International Airport,44.36220169067380,28.488300323486300,353,EU,RO,RO-CT,Constanţa,yes,LRCK,CND,,,https://en.wikipedia.org/wiki/Mihail_Kog%C4%83lniceanu_International_Airport,"Mihail Kogalniceanu, RoAF 57th Air Base"
4476,LRCL,medium_airport,Cluj Avram Iancu International Airport,46.787425,23.684292,1039,EU,RO,RO-CJ,Cluj-Napoca,yes,LRCL,CLJ,,http://www.airportcluj.ro/,https://en.wikipedia.org/wiki/Cluj_International_Airport,Someşeni Airport
4479,LRCV,medium_airport,Craiova International Airport,44.3181,23.888599,626,EU,RO,RO-DJ,Craiova,yes,LRCV,CRA,,http://www.aeroportcraiova.ro/,https://en.wikipedia.org/wiki/Craiova_International_Airport,
4480,LRIA,medium_airport,Iaşi Airport,47.180278,27.620833,411,EU,RO,RO-IS,Iaşi,yes,LRIA,IAS,,http://www.aeroport.ro/,https://en.wikipedia.org/wiki/Ia%C5%9Fi_International_Airport,"Iasi, Jassy"
4481,LROD,medium_airport,Oradea International Airport,47.025299072265600,21.90250015258790,465,EU,RO,RO-BH,Oradea,yes,LROD,OMR,,,https://en.wikipedia.org/wiki/Oradea_International_Airport,
4482,LROP,large_airport,Bucharest Henri Coandă International Airport,44.572127,26.103396,314,EU,RO,RO-IF,Otopeni,yes,LROP,OTP,,http://www.bucharestairports.ro/en/,https://en.wikipedia.org/wiki/Henri_Coand%C4%83_International_Airport,"BUH, Otopeni Airport, RoAF 90th Airlift Base"
333670,LROV,medium_airport,Brașov-Ghimbav International Airport,45.70558,25.522871,1740,EU,RO,RO-BV,Brașov (Ghimbav),yes,LRBV,GHV,,https://brasovairport.ro/,https://en.wikipedia.org/wiki/Brașov-Ghimbav_International_Airport,Aeroportul Internațional Brașov-Ghimbav
4483,LRSB,medium_airport,Sibiu International Airport,45.785841,24.086666,1496,EU,RO,RO-SB,Sibiu,yes,LRSB,SBZ,,http://www.sibiuairport.ro/,https://en.wikipedia.org/wiki/Sibiu_International_Airport,
4484,LRSM,medium_airport,Satu Mare Airport,47.70330047607420,22.885700225830100,405,EU,RO,RO-SM,Satu Mare,yes,LRSM,SUJ,,,https://en.wikipedia.org/wiki/Satu_Mare_International_Airport,
4485,LRSV,medium_airport,Suceava Stefan cel Mare Airport,47.6875,26.35409927368160,1375,EU,RO,RO-SV,Suceava,yes,LRSV,SCV,,http://www.aeroportsuceava.ro/index_en.html,https://en.wikipedia.org/wiki/Suceava_Airport,
4487,LRTM,medium_airport,Transilvania Târgu Mureş International Airport,46.46770095825200,24.412500381469700,963,EU,RO,RO-MS,Târgu Mureş,yes,LRTM,TGM,,,https://en.wikipedia.org/wiki/T%C3%A2rgu_Mure%C5%9F_International_Airport,"Vidrasau, Vidrasău"
4488,LRTR,medium_airport,Timişoara Traian Vuia Airport,45.809898376464800,21.337900161743200,348,EU,RO,RO-TM,Timişoara,yes,LRTR,TSR,,http://www.aerotim.ro/,https://en.wikipedia.org/wiki/Traian_Vuia_International_Airport,"RoAF 93rd Air Base, Giarmata Airport, Temesvár, Temeschburg, Temeswar, Temeschwar, Тимишоара, Темишвар, Temišvar, Banat"
4490,LSGG,large_airport,Geneva Cointrin International Airport,46.238098,6.10895,1411,EU,CH,CH-GE,Geneva,yes,LSGG,GVA,,http://www.gva.ch/,https://en.wikipedia.org/wiki/Geneva_Cointrin_International_Airport,
4502,LSZA,medium_airport,Lugano Airport,46.004299,8.91058,915,EU,CH,CH-TI,Agno,yes,LSZA,LUG,,,https://en.wikipedia.org/wiki/Lugano_Airport,
4503,LSZB,medium_airport,Bern Airport,46.912868,7.498512,1671,EU,CH,CH-BE,Bern,yes,LSZB,BRN,,https://www.bernairport.ch/de/,https://en.wikipedia.org/wiki/Bern_Airport,"LSZB, Belp, Bern-Belp, Bern-Belp Regional Airfield, Regionalflugplatz Bern-Belp"
4505,LSZH,large_airport,Zürich Airport,47.458056,8.548056,1417,EU,CH,CH-ZH,Zurich,yes,LSZH,ZRH,,http://www.zurich-airport.com/,https://en.wikipedia.org/wiki/Zurich_Airport,
4506,LSZR,medium_airport,Sankt Gallen Altenrhein Airport,47.485001,9.56077,1306,EU,CH,CH-SG,St. Gallen,yes,LSZR,ACH,,,https://en.wikipedia.org/wiki/St._Gallen-Altenrhein_Airport,
4528,LTBA,large_airport,İstanbul Atatürk Airport,40.971913,28.823714,163,EU,TR,TR-34,"Bakırköy, Istanbul",yes,LTBA,ISL,,http://www.ataturkairport.com/eng/,https://en.wikipedia.org/wiki/Istanbul_Atat%C3%BCrk_Airport,"Ataturk, Yeşilköy, Yesilkoy"
4544,LTBU,medium_airport,Tekirdağ Çorlu Airport,41.13819885253910,27.919099807739300,574,EU,TR,TR-59,Çorlu,yes,LTBU,TEQ,,,https://en.wikipedia.org/wiki/Tekirda%C4%9F_%C3%87orlu_Airport,
317457,LTFM,large_airport,İstanbul Airport,41.261297,28.741951,325,EU,TR,TR-34,"Arnavutköy, Istanbul",yes,LTFM,IST,,http://www.igairport.com/en,https://en.wikipedia.org/wiki/Istanbul_Airport,
4571,LUKK,medium_airport,Chişinău International Airport,46.9277,28.931,399,EU,MD,MD-CU,Chişinău,yes,LUKK,RMO,,http://www.airport.md/,https://en.wikipedia.org/wiki/Chi%C5%9Fin%C4%83u_International_Airport,KIV
4572,LWOH,medium_airport,Ohrid St. Paul the Apostle Airport,41.18,20.7423,2313,EU,MK,MK-003,Ohrid,yes,LWOH,OHD,,http://ohd.airports.com.mk/,https://en.wikipedia.org/wiki/Ohrid_Airport,
4573,LWSK,large_airport,Skopje International Airport,41.958087,21.622581,781,EU,MK,MK-008,Ilinden,yes,LWSK,SKP,,http://skp.airports.com.mk/,https://en.wikipedia.org/wiki/Skopje_Airport,Petrovec
4574,LXGB,medium_airport,Gibraltar Airport,36.151199,-5.34966,12,EU,GI,GI-U-A,Gibraltar,yes,LXGB,GIB,,,https://en.wikipedia.org/wiki/Gibraltar_Airport,
4610,LYBE,large_airport,Belgrade Nikola Tesla Airport,44.818401,20.309099,335,EU,RS,RS-00,Belgrade,yes,LYBE,BEG,,http://www.beg.aero/,https://en.wikipedia.org/wiki/Belgrade_Nikola_Tesla_Airport,"Beograd, Surčin Airport"
31872,LYKV,medium_airport,Morava Airport,43.817519,20.586662,686,EU,RS,RS-18,Kraljevo,yes,LYKV,KVO,,,https://en.wikipedia.org/wiki/Morava_Airport,Lađevci Airport
4612,LYNI,medium_airport,Niš Constantine the Great Airport,43.337009,21.85451,648,EU,RS,RS-20,Niš,yes,LYNI,INI,,,https://en.wikipedia.org/wiki/Ni%C5%A1_Constantine_the_Great_Airport,Aerodrom Konstantin Veliki Niš
4613,LYPG,large_airport,Podgorica Airport / Podgorica Golubovci Airbase,42.359402,19.2519,141,EU,ME,ME-16,Podgorica,yes,LYPG,TGD,,http://www.montenegroairports.com/?menu=2,https://en.wikipedia.org/wiki/Podgorica_Airport,"Podgorica Airbase, Golubovci Airbase, Аеродром Подгорица, Aerodrom Podgorica"
4615,LYTV,medium_airport,Tivat Airport,42.404701232910200,18.72330093383790,20,EU,ME,ME-19,Tivat,yes,LYTV,TIV,,http://www.montenegroairports.com/?menu=3,https://en.wikipedia.org/wiki/Tivat_Airport,"Аеродром Тиват, Aerodrom Tivat, Zračna luka Tivat"
4617,LZIB,large_airport,M. R. Štefánik Airport,48.1702,17.2127,436,EU,SK,SK-BL,Bratislava,yes,LZIB,BTS,,,https://en.wikipedia.org/wiki/M._R._%C5%A0tef%C3%A1nik_Airport,
4618,LZKZ,medium_airport,Košice Airport,48.66310119628910,21.241100311279300,755,EU,SK,SK-KI,Košice,yes,LZKZ,KSC,,,https://en.wikipedia.org/wiki/Ko%C5%A1ice_International_Airport,
4621,LZSL,medium_airport,Sliač Airport,48.63779830932620,19.13409996032720,1043,EU,SK,SK-BC,Sliač,yes,LZSL,SLD,,http://www.airportsliac.sk/home-engle.html,https://en.wikipedia.org/wiki/Slia%C4%8D_Airport,
4623,LZTT,medium_airport,Poprad-Tatry Airport,49.073601,20.2411,2356,EU,SK,SK-PV,Poprad,yes,LZTT,TAT,,,https://en.wikipedia.org/wiki/Poprad-Tatry_Airport,
6437,UATG,medium_airport,Atyrau International Airport,47.122559,51.819321,-72,EU,KZ,KZ-ATY,Atyrau,yes,UATG,GUW,,,https://en.wikipedia.org/wiki/Atyrau_Airport,
6467,UKBB,large_airport,Boryspil International Airport,50.345001,30.894699,427,EU,UA,UA-32,Boryspil,yes,UKBB,KBP,,https://kbp.aero/en/,https://en.wikipedia.org/wiki/Boryspil_International_Airport,"Borispol, Міжнародний аеропорт ""Бориспіль"", Kyiv"
6469,UKCM,medium_airport,Mariupol International Airport,47.07609939575200,37.44960021972660,251,EU,UA,UA-14,Mariupol,yes,UKCM,MPW,,http://www.maraero.com/,https://en.wikipedia.org/wiki/Mariupol_International_Airport,"Міжнародний аеропорт ""Маріуполь"""
6471,UKDD,medium_airport,Dnipro International Airport,48.357201,35.100601,481,EU,UA,UA-12,Dnipro,yes,UKDD,DNK,,,https://en.wikipedia.org/wiki/Dnipro_International_Airport,"Dnipropetrovsk, Міжнародний аеропорт «Дніпро»"
6472,UKDE,medium_airport,Zaporizhzhia International Airport,47.867000579834000,35.31570053100590,373,EU,UA,UA-23,Zaporizhia,yes,UKDE,OZH,,,https://en.wikipedia.org/wiki/Zaporizhia_International_Airport,"Zaporozhye Airport, Міжнародний аеропорт Запоріжжя, Аэропорт Запорожье"
6473,UKDR,medium_airport,Kryvyi Rih International Airport,48.04330062866210,33.209999084472700,408,EU,UA,UA-12,Kryvyi Rih,yes,UKDR,KWG,,,https://en.wikipedia.org/wiki/Kryvyi_Rih_International_Airport,"Lozuvatka International Airport, Міжнародний аеропорт ""Кривий Ріг"""
6474,UKFF,medium_airport,Simferopol International Airport,45.0522,33.975101,639,EU,UA,UA-43,Simferopol,yes,UKFF,SIP,URFF,https://new.sipaero.ru/,https://en.wikipedia.org/wiki/Simferopol_International_Airport,
6476,UKHH,medium_airport,Kharkiv International Airport,49.924801,36.290001,508,EU,UA,UA-63,Kharkiv,yes,UKHH,HRK,,http://www.airport.kharkov.ua/,https://en.wikipedia.org/wiki/Kharkiv_International_Airport,"Osnova International Airport, Міжнародний аеропорт ""Харків"""
6478,UKKK,medium_airport,Ihor Sikorsky Kyiv International Airport (Zhuliany),50.40194,30.45194,587,EU,UA,UA-30,Kyiv,yes,UKKK,IEV,,https://iev.aero/,https://en.wikipedia.org/wiki/Kyiv_International_Airport_(Zhuliany),"Міжнародний аеропорт ""Київ"", Kiev"
6480,UKLI,medium_airport,Ivano-Frankivsk International Airport,48.88420104980470,24.686100006103500,919,EU,UA,UA-26,Ivano-Frankivsk,yes,UKLI,IFO,,http://www.aeroportifua.ifrastudio.com/index.php?area=2,https://en.wikipedia.org/wiki/Ivano-Frankivsk_International_Airport,Міжнародний аеропорт Івано-Франківськ
6481,UKLL,large_airport,Lviv International Airport,49.8125,23.9561,1071,EU,UA,UA-46,Lviv,yes,UKLL,LWO,,http://www.airport.lviv.ua/index.php?id=home&L=1,https://en.wikipedia.org/wiki/Lviv_International_Airport,"Міжнародний аеропорт ""Львів"""
6482,UKLN,medium_airport,Chernivtsi International Airport,48.259300231933600,25.98080062866210,826,EU,UA,UA-77,Chernivtsi,yes,UKLN,CWC,,,https://en.wikipedia.org/wiki/Chernivtsi_International_Airport,
6483,UKLR,medium_airport,Rivne International Airport,50.60710144042970,26.141599655151400,755,EU,UA,UA-19,Rivne,yes,UKLR,RWN,,http://www.aeroport.rv.ua/,https://en.wikipedia.org/wiki/Rivne_International_Airport,"Міжнародний аеропорт ""Рівне"""
6485,UKLU,medium_airport,Uzhhorod International Airport,48.634300231933600,22.263399124145500,383,EU,UA,UA-21,Uzhhorod,yes,UKLU,UDJ,,,https://en.wikipedia.org/wiki/Uzhhorod_International_Airport,"Міжнародний аеропорт ""Ужгород"""
32534,UKOH,medium_airport,Kherson International Airport,46.6758,32.506401,148,EU,UA,UA-65,Kherson,yes,UKOH,KHE,,http://airport.kherson.ua/,https://en.wikipedia.org/wiki/Kherson_International_Airport,
6486,UKON,medium_airport,Mykolaiv International Airport,47.057899,31.9198,184,EU,UA,UA-48,Nikolayev,yes,UKON,NLV,,http://www.airport.nikolaev.ua/,https://en.wikipedia.org/wiki/Mykolaiv_Airport,"Nikolayev Airport, Nikolaev Airport, Аэропорт Николаев"
6487,UKOO,medium_airport,Odessa International Airport,46.4268,30.6765,172,EU,UA,UA-51,Odessa,yes,UKOO,ODS,,http://www.airport.od.ua/,https://en.wikipedia.org/wiki/Odessa_International_Airport,"Odesa Central, Міжнародний аеропорт Одеса"
6495,UMBB,medium_airport,Brest Airport,52.108299,23.8981,468,EU,BY,BY-BR,Brest,yes,UMBB,BQT,,,https://en.wikipedia.org/wiki/Brest_Airport,Аэропорт Брест
6496,UMGG,medium_airport,Gomel Airport,52.527000427246100,31.016700744628900,472,EU,BY,BY-HO,Gomel,yes,UMGG,GME,,http://www.gomelavia.com/,https://en.wikipedia.org/wiki/Gomel_Airport,
6499,UMMG,medium_airport,Hrodna Airport,53.60200119018560,24.053800582885700,443,EU,BY,BY-HR,Hrodna,yes,UMMG,GNA,,,https://en.wikipedia.org/wiki/Hrodna_Airport,"Grodno Airport, Гро́дна"
6501,UMMS,large_airport,Minsk National Airport,53.888071,28.039964,670,EU,BY,BY-MI,Minsk,yes,UMMS,MSQ,,http://airport.by/en,https://en.wikipedia.org/wiki/Minsk_National_Airport,"Нацыянальны аэрапорт, Minsk 2 Airport"
6502,UMOO,medium_airport,Mogilev Airport,53.954898834228500,30.09510040283200,637,EU,BY,BY-MA,Mogilev,yes,UMOO,MVQ,,,https://en.wikipedia.org/wiki/Mogilev_Airport,